{"type":"FeatureCollection","geocoding":{"creation_date":"2016-10-12","generator":{"author":{"name":"Mapzen"},"package":"fences-builder","version":"0.1.2"},"license":"ODbL (see http://www.openstreetmap.org/copyright)"},"features":[{"id":307828,"osm_type":"relation","type":"Feature","name":"República Dominicana","properties":{"flag":"http://upload.wikimedia.org/wikipedia/commons/9/9f/Flag_of_the_Dominican_Republic.svg","name":"República Dominicana","name:af":"Dominikaanse Republiek","name:am":"ዶሚኒካን ሪፐብሊክ","name:an":"Republica Dominicana","name:ar":"جمهورية الدومينيكان","name:ay":"Republika Duminikana","name:az":"Dominikan Respublikası","name:be":"Дамініканская Рэспубліка","name:bg":"Доминиканска република","name:bn":"ডোমিনিকান প্রজাতন্ত্র","name:bo":"ཌོ་མི་ནི་ཀན་སྤྱི་མཐུན་རྒྱལ་ཁབ།","name:br":"Republik Dominikan","name:bs":"Dominikanska Republika","name:ca":"República Dominicana","name:ce":"Доминикан Пачхьалкх","name:cs":"Dominikánská republika","name:cy":"Gweriniaeth Dominica","name:da":"Dominikanske Republik","name:de":"Dominikanische Republik","name:dv":"ޑޮމިނިކަން ޖުމްހޫރިއްޔާ","name:ee":"Dominican Republic","name:el":"Δομινικανή Δημοκρατία","name:en":"Dominican Republic","name:eo":"Domingo","name:es":"República Dominicana","name:et":"Dominikaani Vabariik","name:eu":"Dominikar Errepublika","name:fa":"جمهوری دومینیکن","name:fi":"Dominikaaninen tasavalta","name:fo":"Dominikanalýðveldið","name:fr":"République dominicaine","name:fy":"Dominikaanske Republyk","name:ga":"An Phoblacht Dhoiminiceach","name:gd":"Poblachd Dhoiminicia","name:gl":"República Dominicana","name:gv":"Yn Phobblaght Ghominicagh","name:he":"הרפובליקה הדומיניקנית","name:hi":"डोमिनिकन गणराज्य","name:hr":"Dominikanska Republika","name:ht":"Dominikani","name:hu":"Dominikai Köztársaság","name:hy":"Դոմինիկյան Հանրապետություն","name:ia":"Republica Dominican","name:id":"Republik Dominika","name:io":"Dominikana Republiko","name:is":"Dóminíska lýðveldið","name:it":"Repubblica Dominicana","name:ja":"ドミニカ共和国","name:jv":"Republik Dominika","name:ka":"დომინიკელთა რესპუბლიკა","name:kk":"Доминикан Республикасы","name:kn":"ಡೊಮಿನಿಕ ಗಣರಾಜ್ಯ","name:ko":"도미니카 공화국","name:ku":"Komara Domînîk","name:kw":"Repoblek Dhominikanek","name:la":"Respublica Dominicana","name:lb":"Dominikanesch Republik","name:li":"Dominicaanse Rippubliek","name:ln":"Republiki Dominikani","name:lt":"Dominikos Respublika","name:lv":"Dominikāna","name:mk":"Доминиканска Република","name:ml":"ഡൊമനിക്കൻ റിപ്പബ്ലിക്","name:mr":"डॉमिनिकन प्रजासत्ताक","name:ms":"Republik Dominika","name:mt":"Repubblika Dominikana","name:my":"ဒိုမီနီကန်သမ္မတနိုင်ငံ","name:na":"Ripubrikin Dominika","name:ne":"डोमिनिकन गणतन्त्र","name:nl":"Dominicaanse Republiek","name:nn":"Den dominikanske republikken","name:no":"Den dominikanske republikk","name:nv":"Domingo Bikéyah","name:oc":"Republica Dominicana","name:or":"ଡୋମେନିକାନ ରିପବ୍ଲିକ","name:os":"Доминиканæйы Республикæ","name:pa":"ਡੋਮਿਨਿਕਾਈ ਗਣਰਾਜ","name:pl":"Dominikana","name:ps":"ډومنيکان جمهوريت","name:pt":"República Dominicana","name:qu":"Duminikana","name:ro":"Republica Dominicană","name:ru":"Доминиканская Республика","name:rw":"Repubulika ya Dominikani","name:sa":"डोमोनिकन रिपब्लिक","name:se":"Dominikána dásseváldi","name:sh":"Dominikanska Republika","name:sk":"Dominikánska republika","name:sl":"Dominikanska republika","name:sq":"Republika Dominikane","name:sr":"Доминиканска Република","name:ss":"Tibuse weDomonokha","name:su":"Républik Dominika","name:sv":"Dominikanska Republiken","name:sw":"Jamhuri ya Dominika","name:ta":"டொமினிக்கன் குடியரசு","name:te":"డొమెనికన్ రిపబ్లిక్","name:tg":"Ҷумҳурии Доминикана","name:th":"สาธารณรัฐโดมินิกัน","name:tl":"Republikang Dominikano","name:tr":"Dominik Cumhuriyeti","name:tt":"Доминикан Җөмһүрияте","name:ug":"دومىنىكان جۇمھۇرىيەتى","name:uk":"Домініканська Республіка","name:ur":"جمہوریہ ڈومینیکن","name:uz":"Dominika Respublikasi","name:vi":"Cộng hòa Dominica","name:vo":"Sandominän","name:wo":"Réewum Dominik","name:yi":"דאמיניקאנישע רעפובליק","name:yo":"Orílẹ̀òmìnira Dómíníkì","name:zh":"多明尼加共和國","boundary":"administrative","name:als":"Dominikanische Republik","name:arz":"جمهورية الدومينيكان","name:ast":"República Dominicana","name:bcl":"Dominikanang Republika","name:bpy":"ডোমিনিকান প্রজাতন্ত্র","name:bxr":"Доминикана Бүгэдэ Найрамдаха Улас","name:ceb":"Republikang Dominikano","name:ckb":"کۆماری دۆمینیکان","name:crh":"Dominikan Cumhuriyeti","name:diq":"Cumhuriyetê Dominika","name:dsb":"Dominikańska republika","name:ext":"Repúbrica Dominicana","name:frp":"Rèpublica domeniquêna","name:frr":"Dominikaans Republiik","name:gag":"Dominikan Respublikası","name:hak":"Tô-mí-nì-kâ Khiung-fò-koet","name:hif":"Dominican Republic","name:hsb":"Dominikanska republika","name:ilo":"Republica Dominicana","name:lij":"Repubbrica Dominicann-a","name:lmo":"Repübliga Dominicana","name:mzn":"دومینیکن","name:nah":"Dominicanatlācatlahtohcāyōtl","name:nds":"Dominikaansche Republiek","name:nov":"Dominikal Republike","name:pag":"Republika na Dominikana","name:pam":"Dominikana Republika","name:pap":"Republika Dominikano","name:pih":"Dominikan Repablik","name:pms":"Repùblica Duminican-a","name:pnb":"ڈومینیکن","name:sah":"Доминика Республиката","name:scn":"Ripùbbrica Duminicana","name:sco":"Dominican Republic","name:szl":"Důmińikana","name:vec":"Repùblica Dominicana","name:war":"Republika Dominicana","name:xal":"Доминиканмудин Орн","timezone":"America/Santo_Domingo","wikidata":"Q786","ISO3166-1":"DO","wikipedia":"es:República Dominicana","population":"10464474","admin_level":"2","border_type":"nation","name:nds-nl":"Dominikaanse Reppubliek","name:simple":"Dominican Republic","name:zh-yue":"多明尼加","name:bat-smg":"Duomėnėkas Respoblėka","name:fiu-vro":"Dominikaani Vabariik","name:be-tarask":"Дамініканская Рэспубліка","is_in:continent":"North America","name:zh-min-nan":"Dominic Kiōng-hô-kok","ISO3166-1:alpha2":"DO","ISO3166-1:alpha3":"DOM","ISO3166-1:numeric":"214"},"geometry":{"type":"MultiPolygon","coordinates":[[[[-68.1101463,18.639852700000006],[-68.11017249999999,18.6354107],[-68.1102984,18.630997700000005],[-68.1120131,18.589608899999998],[-68.112281,18.584737899999997],[-68.1126795,18.5797457],[-68.1132451,18.574446],[-68.1139595,18.569232799999995],[-68.1147943,18.564105700000002],[-68.11574749999998,18.5591662],[-68.1168479,18.554158400000006],[-68.1180899,18.5491241],[-68.1194374,18.544265700000004],[-68.120955,18.539302499999998],[-68.1226038,18.534385900000004],[-68.12437889999998,18.529529699999998],[-68.12631669999999,18.5246277],[-68.12840709999998,18.5197522],[-68.13060879999999,18.514971000000006],[-68.1329466,18.510239799999997],[-68.3818153,18.0232971],[-68.3867257,18.014251800000004],[-68.3920549,18.0055647],[-68.3983986,17.9963573],[-68.40517729999999,17.9876087],[-68.4120611,17.979633999999997],[-68.41938340000002,17.9720001],[-68.4270841,17.9647647],[-68.43521390000002,17.957873100000004],[-68.44351520000002,17.951534],[-68.4522361,17.945536699999995],[-68.46148190000001,17.9398522],[-68.4712513,17.9345218],[-68.4807683,17.929943899999998],[-68.4905478,17.9258147],[-68.50108900000001,17.921974900000002],[-68.5119411,17.9186481],[-68.5169421,17.9172608],[-68.51825000000001,17.9170218],[-68.51955900000002,17.9167918],[-68.52086999999999,17.9165688],[-68.52218199999999,17.9163548],[-68.523495,17.916147799999997],[-68.52481,17.9159488],[-68.526126,17.9157588],[-68.527444,17.9155758],[-68.52876199999999,17.915400799999997],[-68.530082,17.915233799999996],[-68.53140300000001,17.9150758],[-68.532725,17.9149248],[-68.534048,17.9147819],[-68.53537099999998,17.9146479],[-68.536696,17.9145209],[-68.538021,17.9144029],[-68.53934699999999,17.914291900000002],[-68.54067400000001,17.9141899],[-68.542002,17.914095900000003],[-68.54333,17.914008900000002],[-68.54465800000001,17.9139309],[-68.545987,17.913860900000003],[-68.547317,17.9137989],[-68.548647,17.913744899999998],[-68.549977,17.9136989],[-68.55130799999999,17.9136609],[-68.55263799999999,17.913630899999998],[-68.55396900000001,17.9136089],[-68.55529999999999,17.9135949],[-68.556632,17.913589899999998],[-68.55796300000002,17.9135919],[-68.55929400000001,17.913602899999997],[-68.56062500000002,17.9136219],[-68.56195600000001,17.913647899999997],[-68.563286,17.913682899999998],[-68.56461700000001,17.9137259],[-68.565947,17.9137769],[-68.567276,17.913835900000002],[-68.568606,17.9139029],[-68.569934,17.913977900000003],[-68.57126300000002,17.914060900000003],[-68.57258999999999,17.9141529],[-68.57391799999999,17.914251900000004],[-68.575244,17.914358900000003],[-68.57656999999999,17.914474900000002],[-68.577894,17.9145979],[-68.579218,17.914729899999998],[-68.580542,17.914868800000004],[-68.581417,17.914966800000002],[-68.58166500000002,17.9149838],[-68.58299199999999,17.915082799999997],[-68.58431900000001,17.915189799999997],[-68.585644,17.9153058],[-68.58696900000001,17.915428799999997],[-68.58829300000001,17.915559799999997],[-68.589616,17.915699799999995],[-68.590939,17.915846799999997],[-68.59226000000001,17.9160018],[-68.59358,17.9161658],[-68.59489900000001,17.916336799999996],[-68.59621700000001,17.9165158],[-68.59753400000001,17.916703799999997],[-68.598849,17.916898800000002],[-68.60016300000001,17.9171028],[-68.60147599999999,17.9173137],[-68.60278699999998,17.9175327],[-68.604097,17.9177597],[-68.60540499999999,17.917995700000006],[-68.60671199999999,17.9182387],[-68.60801699999999,17.9184897],[-68.60932,17.9187487],[-68.610622,17.919015700000003],[-68.611922,17.9192907],[-68.61322000000001,17.9195727],[-68.61451600000001,17.919863600000003],[-68.61581,17.9201616],[-68.617102,17.9204676],[-68.618393,17.920781599999998],[-68.619681,17.9211036],[-68.620966,17.921433599999997],[-68.62225,17.9217716],[-68.62353199999998,17.922116499999994],[-68.624811,17.922469499999995],[-68.62608699999998,17.922830499999996],[-68.62692799999999,17.923073499999997],[-68.62757699999999,17.922939499999995],[-68.62887999999998,17.922680499999995],[-68.630185,17.922428499999995],[-68.631491,17.922184499999997],[-68.63279999999999,17.9219486],[-68.63410900000001,17.921720599999997],[-68.63542,17.921500599999998],[-68.63673299999999,17.9212886],[-68.63804699999999,17.9210846],[-68.63936199999999,17.9208876],[-68.640679,17.920699599999995],[-68.641997,17.920519599999995],[-68.643316,17.920347599999996],[-68.644636,17.920183599999998],[-68.645957,17.920027599999997],[-68.64727900000001,17.919878600000004],[-68.648602,17.9197386],[-68.64992600000001,17.9196067],[-68.651251,17.9194827],[-68.65257699999998,17.9193667],[-68.653903,17.919258700000004],[-68.65522999999999,17.919158700000004],[-68.65655799999999,17.919067700000003],[-68.65788599999999,17.918983700000002],[-68.659215,17.918907700000002],[-68.660544,17.9188397],[-68.661874,17.9187807],[-68.66320400000001,17.9187287],[-68.664535,17.9186857],[-68.665865,17.9186507],[-68.667196,17.918622699999997],[-68.668527,17.9186037],[-68.66985799999999,17.918592699999998],[-68.67102999999999,17.9185897],[-68.677689,17.9185897],[-68.677693,17.9185897],[-68.679024,17.9185937],[-68.68035499999999,17.9186057],[-68.681686,17.9186257],[-68.68301699999999,17.9186537],[-68.68434799999999,17.9186907],[-68.68567799999998,17.918734699999998],[-68.68700799999999,17.9187877],[-68.68833799999997,17.9188477],[-68.689667,17.9189167],[-68.690996,17.9189937],[-68.692324,17.919077700000003],[-68.693652,17.919170700000002],[-68.69497799999999,17.919271700000003],[-68.696305,17.9193807],[-68.69763,17.9194977],[-68.698955,17.919622699999998],[-68.70027900000001,17.919755600000002],[-68.70160200000001,17.9198966],[-68.70292400000001,17.920045599999998],[-68.70424500000001,17.920202599999996],[-68.705565,17.9203686],[-68.706884,17.920541599999996],[-68.708201,17.920722599999994],[-68.709518,17.9209116],[-68.71083300000001,17.9211086],[-68.712147,17.921313599999998],[-68.71345900000001,17.921526599999996],[-68.71477,17.921747599999996],[-68.71608,17.9219766],[-68.717388,17.922213499999994],[-68.71869400000001,17.922458499999998],[-68.71999900000002,17.922711499999995],[-68.721302,17.922972499999997],[-68.722603,17.923240499999995],[-68.723903,17.923517499999996],[-68.7252,17.9238015],[-68.726496,17.9240945],[-68.72779,17.9243945],[-68.72908199999999,17.924702399999997],[-68.73037099999999,17.925017399999998],[-68.73165900000002,17.925341399999997],[-68.732944,17.925672399999996],[-68.73422800000002,17.926012399999998],[-68.73449500000001,17.9260844],[-68.74368000000001,17.9285543],[-68.74368400000002,17.9285553],[-68.74496400000002,17.928903299999998],[-68.74624200000001,17.9292603],[-68.74751800000001,17.929624199999996],[-68.748791,17.929996199999998],[-68.750062,17.9303752],[-68.75133,17.930762199999997],[-68.752596,17.9311572],[-68.753859,17.9315602],[-68.75512,17.931970100000004],[-68.75637699999999,17.9323881],[-68.757632,17.9328141],[-68.7724204,17.9374762],[-70.11225420000001,18.0230727],[-71.53752400000002,17.295722299999994],[-71.53769950000002,17.295638199999996],[-71.53887149999998,17.295040199999995],[-71.5400475,17.2944502],[-71.54122650000002,17.293867300000002],[-71.5424105,17.2932913],[-71.5435975,17.292723299999995],[-71.5447885,17.2921613],[-71.5459835,17.2916073],[-71.54718150000001,17.291061300000003],[-71.5483835,17.290521299999998],[-71.5495885,17.2899893],[-71.55079749999999,17.2894644],[-71.5520105,17.288947399999998],[-71.55322550000001,17.288437399999996],[-71.5544445,17.2879344],[-71.5556675,17.287439399999997],[-71.5562075,17.2872244],[-71.5573505,17.286744399999996],[-71.5585695,17.286241399999998],[-71.55979149999999,17.285745399999996],[-71.5610175,17.2852574],[-71.5622455,17.284776499999996],[-71.56347749999999,17.284303499999996],[-71.5647125,17.283837499999997],[-71.5659505,17.283379499999995],[-71.56719050000001,17.282928499999997],[-71.5684345,17.282485499999996],[-71.5696815,17.282050499999997],[-71.57093049999999,17.281622499999994],[-71.5721835,17.281202499999996],[-71.57343849999998,17.280789499999994],[-71.5746965,17.280384499999997],[-71.57595649999999,17.279987600000002],[-71.57721950000001,17.2795976],[-71.57848549999999,17.279216599999998],[-71.5797535,17.2788416],[-71.58102350000001,17.2784756],[-71.5822965,17.278116599999997],[-71.58357149999999,17.277765600000002],[-71.5848495,17.277422599999998],[-71.58612950000001,17.2770876],[-71.5874115,17.2767596],[-71.5886955,17.276440599999997],[-71.5899815,17.2761286],[-71.59126950000002,17.2758246],[-71.59255950000001,17.275527699999998],[-71.5938515,17.275239699999997],[-71.5951455,17.274958700000006],[-71.5964415,17.2746867],[-71.5977395,17.2744217],[-71.59903849999999,17.274164700000004],[-71.60033949999999,17.273915700000003],[-71.6016415,17.273675700000002],[-71.60294549999999,17.273442699999997],[-71.6042515,17.2732167],[-71.60555849999999,17.2729997],[-71.60686749999999,17.272790699999998],[-71.60817649999998,17.272589699999997],[-71.60948849999998,17.272396699999998],[-71.6108005,17.2722117],[-71.6121145,17.272033699999998],[-71.6134285,17.271864700000005],[-71.6147445,17.2717037],[-71.6160615,17.271550700000002],[-71.6173795,17.271405700000003],[-71.6186985,17.271268700000004],[-71.62001749999999,17.2711397],[-71.62133849999998,17.271018700000003],[-71.6226595,17.2709058],[-71.62398149999999,17.2708008],[-71.62530449999998,17.270703799999996],[-71.6266275,17.270614799999997],[-71.6279515,17.270533799999995],[-71.62927549999999,17.2704618],[-71.6306005,17.270396799999997],[-71.63192550000001,17.270339799999995],[-71.6332505,17.2702918],[-71.6345765,17.2702518],[-71.63590249999999,17.2702188],[-71.6372285,17.2701948],[-71.6385555,17.2701788],[-71.63988149999999,17.2701708],[-71.64120750000001,17.2701708],[-71.6425345,17.2701788],[-71.6434225,17.2701888],[-71.6475855,17.270243799999996],[-71.6475885,17.270243799999996],[-71.64813249999999,17.270252799999998],[-71.6486765,17.2702608],[-71.64879549999999,17.270262799999998],[-71.6489155,17.2702648],[-71.6494585,17.270276799999998],[-71.65000249999999,17.2702888],[-71.6501215,17.2702918],[-71.65024149999999,17.2702948],[-71.65078449999999,17.270309799999996],[-71.65132849999999,17.270324799999997],[-71.65144749999999,17.270328799999998],[-71.6515675,17.270332799999995],[-71.65211049999999,17.2703508],[-71.6526545,17.270369799999997],[-71.65277349999998,17.270373799999998],[-71.65289249999998,17.2703778],[-71.65343649999998,17.270399799999996],[-71.65397949999999,17.270421799999998],[-71.65409849999999,17.270426799999996],[-71.6542185,17.270431799999997],[-71.65476149999999,17.2704578],[-71.65530449999999,17.2704818],[-71.6554235,17.2704888],[-71.65554249999998,17.270493799999997],[-71.65608549999999,17.270522799999995],[-71.65662950000001,17.2705508],[-71.65674849999998,17.2705578],[-71.65686749999999,17.270563799999998],[-71.6574105,17.2705958],[-71.6579535,17.270627799999996],[-71.65807249999997,17.270634799999996],[-71.65819149999999,17.270641799999996],[-71.65873349999998,17.270677799999998],[-71.65927649999999,17.270711799999997],[-71.65939549999999,17.270720799999996],[-71.6595145,17.270727799999996],[-71.6600575,17.270766799999997],[-71.6605995,17.2708048],[-71.66071849999999,17.2708138],[-71.66083749999999,17.270822799999998],[-71.6613795,17.2708638],[-71.6619215,17.2709058],[-71.66204049999999,17.270915700000003],[-71.6621595,17.270924700000002],[-71.66270149999998,17.270969700000002],[-71.66324350000001,17.271014700000002],[-71.66336249999999,17.2710247],[-71.66348149999999,17.2710347],[-71.6640225,17.271083700000002],[-71.66456450000001,17.2711317],[-71.66468350000001,17.2711427],[-71.6648015,17.271152700000002],[-71.66534349999999,17.271204700000002],[-71.66588449999999,17.271255700000005],[-71.6660035,17.271267700000003],[-71.6661215,17.2712797],[-71.6666625,17.2713347],[-71.66720350000001,17.271388700000003],[-71.6673225,17.271401700000002],[-71.6674405,17.2714137],[-71.6679815,17.2714727],[-71.6685215,17.2715297],[-71.6686405,17.2715437],[-71.6687595,17.2715567],[-71.66929950000001,17.2716177],[-71.6698395,17.271678700000002],[-71.6699575,17.2716937],[-71.67007649999998,17.2717067],[-71.6706155,17.271771700000002],[-71.6711555,17.2718367],[-71.6712735,17.271850700000005],[-71.67139249999998,17.271865700000006],[-71.67193149999999,17.2719337],[-71.67247049999997,17.2720017],[-71.67258949999999,17.2720167],[-71.67270749999997,17.2720317],[-71.67324649999999,17.2721037],[-71.67378549999998,17.2721747],[-71.6739035,17.2721907],[-71.6740215,17.272206699999998],[-71.6745595,17.2722817],[-71.67509849999998,17.272355700000002],[-71.67521649999999,17.2723727],[-71.67533449999998,17.2723887],[-71.67587249999997,17.2724667],[-71.67640949999999,17.272544699999997],[-71.67652749999999,17.272562699999998],[-71.67664549999999,17.272579699999998],[-71.6771835,17.2726607],[-71.67772049999999,17.272741699999997],[-71.67783849999998,17.272759699999998],[-71.6779565,17.2727777],[-71.67849249999998,17.2728627],[-71.6790295,17.2729467],[-71.67914749999998,17.272965700000004],[-71.6792655,17.272984700000002],[-71.67980149999998,17.2730727],[-71.68033749999998,17.2731597],[-71.6804545,17.2731797],[-71.68057249999998,17.273198700000002],[-71.6811085,17.2732897],[-71.6816435,17.2733807],[-71.6817615,17.2734017],[-71.68187849999998,17.2734217],[-71.6824135,17.2735157],[-71.68294849999998,17.273609699999998],[-71.6830665,17.2736307],[-71.6831835,17.273651700000002],[-71.68371749999999,17.273749699999996],[-71.6842525,17.2738467],[-71.6843695,17.273868700000005],[-71.68448649999999,17.2738897],[-71.6850205,17.273990700000002],[-71.6855535,17.274091700000003],[-71.68567049999999,17.2741137],[-71.68578749999998,17.274135700000002],[-71.6863205,17.2742407],[-71.6868535,17.2743437],[-71.68697049999999,17.274367700000003],[-71.68708749999999,17.2743907],[-71.68762050000001,17.2744977],[-71.68815249999999,17.2746047],[-71.6882695,17.2746287],[-71.68838549999998,17.2746527],[-71.68891749999999,17.2747627],[-71.6894495,17.274872700000003],[-71.6895655,17.274897700000004],[-71.68968249999999,17.2749227],[-71.69021350000001,17.275036699999998],[-71.6907445,17.275149699999996],[-71.6908605,17.2751747],[-71.69097649999999,17.2752007],[-71.6915065,17.2753177],[-71.69203749999998,17.275433699999997],[-71.6921535,17.2754607],[-71.69226950000001,17.2754857],[-71.69279849999998,17.275606599999996],[-71.69332849999999,17.275725599999998],[-71.6934445,17.275752599999997],[-71.6935605,17.275779599999996],[-71.69408849999999,17.2759026],[-71.6946175,17.2760256],[-71.6947335,17.2760536],[-71.6948495,17.2760806],[-71.69537649999998,17.2762076],[-71.6959045,17.276333599999997],[-71.6960205,17.2763626],[-71.6961365,17.2763906],[-71.6966625,17.276520599999998],[-71.69718950000001,17.276649599999995],[-71.6973055,17.2766786],[-71.6974205,17.276707599999998],[-71.6979465,17.2768406],[-71.69847249999998,17.2769736],[-71.69858849999999,17.2770026],[-71.6987035,17.2770326],[-71.6992285,17.277168600000003],[-71.6997535,17.2773046],[-71.6998685,17.2773356],[-71.6999845,17.277364600000002],[-71.7005085,17.2775046],[-71.7010325,17.277643599999998],[-71.7011475,17.2776746],[-71.70126250000001,17.2777056],[-71.7017855,17.277848600000002],[-71.70230849999999,17.277990600000003],[-71.70242350000001,17.278022599999996],[-71.70253849999999,17.2780536],[-71.7030605,17.278199599999997],[-71.7035825,17.278345599999998],[-71.7036975,17.2783776],[-71.7038115,17.278410599999997],[-71.7043335,17.278559599999998],[-71.70485450000001,17.278707599999997],[-71.7049685,17.278741599999996],[-71.7050835,17.278773599999997],[-71.70560350000001,17.2789266],[-71.70612350000002,17.279078600000002],[-71.7062375,17.279112599999998],[-71.7063525,17.2791456],[-71.70687149999999,17.2793006],[-71.7073905,17.279455600000002],[-71.70750450000001,17.2794906],[-71.70761850000001,17.2795246],[-71.7081365,17.2796836],[-71.7086555,17.2798416],[-71.70876849999999,17.2798766],[-71.70888249999999,17.279911600000002],[-71.7093995,17.280073599999998],[-71.7099165,17.280234599999996],[-71.7100305,17.280270499999997],[-71.71014350000002,17.280306499999995],[-71.71065950000002,17.280471499999997],[-71.71117650000001,17.280635499999995],[-71.71128950000002,17.280672499999994],[-71.7114025,17.280708499999996],[-71.71191750000001,17.2808775],[-71.71243249999999,17.281044499999997],[-71.7125455,17.281082499999997],[-71.7126585,17.281118499999998],[-71.7131725,17.281290499999997],[-71.71368650000001,17.281460499999998],[-71.7137985,17.281499499999995],[-71.71391150000001,17.281536499999994],[-71.71442450000002,17.281710499999996],[-71.7149375,17.2818845],[-71.7150495,17.281923499999998],[-71.7151625,17.2819615],[-71.71567350000001,17.282139499999992],[-71.71618550000001,17.282316499999993],[-71.71629750000001,17.282355499999998],[-71.71640950000001,17.282394499999995],[-71.71692050000001,17.282575499999997],[-71.7174305,17.282755499999997],[-71.71754250000001,17.282795499999995],[-71.71765450000002,17.282835499999997],[-71.71816350000002,17.283019499999995],[-71.71867350000001,17.283202499999994],[-71.7187845,17.283243499999994],[-71.7188965,17.283283499999996],[-71.71940450000001,17.283470499999996],[-71.7199125,17.283656499999996],[-71.72002350000001,17.283698499999996],[-71.7201355,17.283739499999992],[-71.7206425,17.2839285],[-71.7211485,17.284118499999998],[-71.72125950000002,17.2841605],[-71.72137149999999,17.284202499999996],[-71.7218765,17.2843955],[-71.72238249999998,17.284587499999997],[-71.7224935,17.284630499999995],[-71.7226035,17.284672499999996],[-71.7231085,17.2848695],[-71.7236125,17.2850644],[-71.7237225,17.2851084],[-71.7238335,17.2851514],[-71.72433649999999,17.2853504],[-71.7248395,17.285548399999996],[-71.72494950000001,17.285593399999996],[-71.7250605,17.285636399999994],[-71.7255615,17.285839399999997],[-71.72606350000001,17.286040399999997],[-71.7261735,17.2860854],[-71.72628350000001,17.286129399999997],[-71.7267835,17.2863354],[-71.72728350000001,17.286539399999995],[-71.7273935,17.2865854],[-71.72750350000001,17.286630399999996],[-71.72800249999999,17.2868384],[-71.7285015,17.287046399999998],[-71.7286105,17.2870924],[-71.7287195,17.2871384],[-71.7292175,17.287349399999997],[-71.7297155,17.2875604],[-71.72982350000001,17.2876074],[-71.7299335,17.2876534],[-71.73042950000001,17.287868400000004],[-71.73092550000001,17.288082399999997],[-71.7310345,17.288129399999995],[-71.7311425,17.288176399999998],[-71.7316375,17.288394399999998],[-71.73213249999999,17.288610399999996],[-71.7322405,17.288659399999997],[-71.7323495,17.288706399999995],[-71.73284249999999,17.2889274],[-71.7333355,17.289147399999997],[-71.7334435,17.2891954],[-71.7335525,17.289244399999998],[-71.73404350000001,17.2894674],[-71.7345355,17.289690299999997],[-71.73464350000002,17.289740299999995],[-71.7347515,17.289789299999995],[-71.7352415,17.2900153],[-71.73573249999998,17.290241299999998],[-71.7358395,17.2902913],[-71.7359475,17.290341299999998],[-71.7364355,17.2905703],[-71.73692450000001,17.290799299999996],[-71.7370315,17.290850300000002],[-71.73713950000001,17.2909003],[-71.73762650000002,17.291132299999997],[-71.73811350000001,17.2913643],[-71.73822050000001,17.291416299999998],[-71.7383275,17.2914673],[-71.7388135,17.291702299999997],[-71.73929950000002,17.2919373],[-71.7394055,17.2919893],[-71.7395115,17.292041299999998],[-71.7399965,17.292279299999997],[-71.7404805,17.292516299999996],[-71.7405865,17.292569299999997],[-71.74069250000001,17.292622299999994],[-71.74117550000001,17.2928633],[-71.74165750000002,17.2931033],[-71.74176350000002,17.2931573],[-71.74186950000002,17.2932103],[-71.7423505,17.2934543],[-71.7428315,17.293697299999998],[-71.7429365,17.293752299999998],[-71.7430425,17.293805300000002],[-71.74352150000001,17.2940523],[-71.74400150000001,17.294299199999998],[-71.74410650000002,17.2943532],[-71.74421150000002,17.2944082],[-71.74468950000002,17.2946582],[-71.74516750000001,17.2949072],[-71.7452715,17.2949622],[-71.74537649999999,17.295017199999997],[-71.7458525,17.295270199999997],[-71.7463285,17.295522199999994],[-71.7464325,17.295578199999998],[-71.7465375,17.295634199999995],[-71.74701150000001,17.2958902],[-71.74748650000001,17.296145199999998],[-71.74759050000002,17.296202199999996],[-71.74769450000002,17.2962582],[-71.74816650000001,17.296516199999996],[-71.74863950000001,17.296774199999998],[-71.7487435,17.296832199999997],[-71.7488475,17.2968892],[-71.7493185,17.2971502],[-71.7497895,17.2974112],[-71.7498925,17.2974692],[-71.74999550000001,17.297526199999997],[-71.7504645,17.2977912],[-71.7509345,17.2980552],[-71.7510375,17.298113199999996],[-71.75113950000001,17.2981712],[-71.7516075,17.298438199999996],[-71.75207549999999,17.298705199999997],[-71.75217749999999,17.298764199999997],[-71.7522805,17.298823199999998],[-71.75274549999999,17.2990931],[-71.7532115,17.2993621],[-71.7533135,17.299422099999997],[-71.7534155,17.2994821],[-71.7538795,17.2997541],[-71.7543435,17.3000271],[-71.7544455,17.300087100000002],[-71.7545475,17.3001471],[-71.7550095,17.3004231],[-71.75547149999998,17.3006981],[-71.75557249999999,17.3007591],[-71.7556745,17.300820100000003],[-71.7561345,17.301098100000004],[-71.7565945,17.301376100000002],[-71.7566955,17.301438100000002],[-71.7567965,17.3014991],[-71.75725550000001,17.301780100000002],[-71.75771350000001,17.302061100000003],[-71.75781450000001,17.3021231],[-71.75791450000001,17.302185100000003],[-71.75837149999998,17.3024691],[-71.75882849999999,17.3027531],[-71.7589275,17.3028161],[-71.7590285,17.302878100000004],[-71.75948249999999,17.303165100000005],[-71.75993749999999,17.303451100000004],[-71.7600375,17.303515100000002],[-71.7601365,17.303578],[-71.76058950000001,17.303867000000004],[-71.7610425,17.304156000000003],[-71.76114150000001,17.30422],[-71.76124150000001,17.304284000000003],[-71.76169250000001,17.304576],[-71.76214350000001,17.304868000000006],[-71.7622415,17.304933000000002],[-71.7623405,17.304997000000004],[-71.7627895,17.305291999999998],[-71.7632385,17.305587],[-71.76333749999999,17.305652],[-71.7634355,17.305716999999998],[-71.7638825,17.306015000000002],[-71.76432950000002,17.306312],[-71.76442750000001,17.306378000000002],[-71.76452550000002,17.306444],[-71.7649705,17.306744],[-71.7654155,17.307044],[-71.76551350000001,17.307111000000003],[-71.76561050000001,17.307177000000003],[-71.76605350000001,17.30748],[-71.7664975,17.307783],[-71.76659450000001,17.307850000000006],[-71.76669150000001,17.307916000000002],[-71.7671325,17.3082219],[-71.76757350000001,17.308527899999998],[-71.76766950000003,17.3085949],[-71.76776650000001,17.308662899999998],[-71.76820550000001,17.308970900000002],[-71.76864450000001,17.309278900000002],[-71.76874049999999,17.3093479],[-71.76883749999999,17.3094149],[-71.76927450000001,17.309726899999998],[-71.7697115,17.3100379],[-71.7698065,17.310105900000003],[-71.7699025,17.310174900000003],[-71.77033749999998,17.310488900000003],[-71.77077249999998,17.310801900000005],[-71.7708675,17.310871900000006],[-71.77096350000001,17.310940900000002],[-71.7713965,17.311256900000004],[-71.77182950000001,17.3115729],[-71.77192350000001,17.3116429],[-71.77201849999999,17.3117129],[-71.7724495,17.3120319],[-71.77288049999999,17.312350900000002],[-71.77297449999999,17.3124209],[-71.7730695,17.3124909],[-71.77349749999999,17.3128129],[-71.7739265,17.3131348],[-71.7740205,17.313205800000002],[-71.77411450000001,17.313275800000003],[-71.7745405,17.3136008],[-71.7749675,17.313924800000002],[-71.7750605,17.3139968],[-71.7751545,17.314067800000004],[-71.77557849999998,17.314394800000002],[-71.7760035,17.3147208],[-71.7760955,17.3147938],[-71.7761895,17.314865800000007],[-71.7766115,17.3151948],[-71.7770335,17.315523799999998],[-71.77712550000001,17.315596799999998],[-71.7772185,17.3156688],[-71.7776385,17.316001800000002],[-71.77805849999999,17.316332799999998],[-71.7781505,17.3164068],[-71.77824249999999,17.3164798],[-71.7786605,17.316813800000002],[-71.77907849999998,17.317148800000002],[-71.77916950000001,17.3172228],[-71.7792615,17.317295800000004],[-71.7796765,17.3176327],[-71.7800925,17.317969700000006],[-71.7801835,17.3180447],[-71.7802745,17.318118700000003],[-71.7806875,17.318458700000004],[-71.7811015,17.3187977],[-71.7811915,17.318872700000004],[-71.7812825,17.318947700000002],[-71.78169350000002,17.319289700000002],[-71.7821055,17.319631700000002],[-71.7821945,17.3197067],[-71.7822855,17.3197827],[-71.78269350000001,17.3201267],[-71.7831025,17.320471700000002],[-71.7831925,17.3205477],[-71.7832815,17.3206237],[-71.7836885,17.320970700000004],[-71.7840955,17.3213177],[-71.78418450000001,17.3213937],[-71.78427350000001,17.321470700000003],[-71.7846775,17.321819700000002],[-71.78508249999999,17.3221697],[-71.78517049999999,17.322246599999996],[-71.78525950000001,17.322323599999997],[-71.7856605,17.3226756],[-71.78606350000001,17.3230276],[-71.7861505,17.3231056],[-71.78623950000001,17.3231826],[-71.7866385,17.323537599999998],[-71.7870385,17.323891600000003],[-71.78712550000002,17.3239696],[-71.78721350000002,17.3240476],[-71.78761050000001,17.3244046],[-71.78800849999999,17.324761600000002],[-71.7880945,17.3248396],[-71.78818249999999,17.324918600000004],[-71.78857649999999,17.3252776],[-71.78897249999999,17.325636599999996],[-71.7890585,17.325716599999996],[-71.7891455,17.3257956],[-71.7895375,17.326157600000002],[-71.7899305,17.3265186],[-71.79001650000001,17.3265986],[-71.7901025,17.3266776],[-71.7904925,17.327042499999997],[-71.7908825,17.3274055],[-71.79096750000001,17.3274865],[-71.79105350000002,17.3275665],[-71.7914415,17.3279325],[-71.79182950000002,17.328299499999996],[-71.79191350000002,17.328380499999998],[-71.7919985,17.3284605],[-71.7923835,17.328829499999998],[-71.7927695,17.3291985],[-71.7928535,17.3292795],[-71.79293849999999,17.3293605],[-71.79332050000001,17.329731499999998],[-71.7937045,17.3301025],[-71.7937875,17.3301845],[-71.7938715,17.3302665],[-71.79425250000001,17.330639499999997],[-71.7946325,17.3310135],[-71.79471550000001,17.331095500000004],[-71.79479950000001,17.331177500000003],[-71.7951775,17.331553400000004],[-71.7955555,17.331929400000003],[-71.79761150000002,17.333983400000005],[-71.79761350000003,17.333986400000004],[-71.7985305,17.334907400000006],[-71.7994405,17.335835400000004],[-71.80034549999999,17.3367673],[-71.80124350000001,17.337705300000003],[-71.80213549999999,17.338649299999997],[-71.8030205,17.339598300000002],[-71.8039005,17.3405533],[-71.8047735,17.341512199999997],[-71.8056395,17.342477199999998],[-71.8065005,17.343448199999997],[-71.8073545,17.344423199999998],[-71.8082015,17.345404199999997],[-71.80904249999999,17.3463901],[-71.80987649999999,17.347381100000003],[-71.8107045,17.3483771],[-71.81152550000002,17.349378100000003],[-71.81234049999999,17.350384000000002],[-71.8131485,17.351395000000004],[-71.8139495,17.352411],[-71.8147445,17.353431999999998],[-71.81553249999999,17.354457000000004],[-71.8163135,17.3554869],[-71.8170875,17.3565219],[-71.81785550000001,17.357561900000004],[-71.8186155,17.358606899999998],[-71.81936950000001,17.359655800000002],[-71.8201155,17.360708799999998],[-71.8208555,17.361766799999998],[-71.82158849999999,17.362829799999997],[-71.82231349999999,17.3638968],[-71.82303249999998,17.364968700000006],[-71.8231955,17.3652147],[-71.82382849999999,17.366142699999997],[-71.8245495,17.3672127],[-71.8252635,17.3682877],[-71.8259695,17.369365600000002],[-71.8266685,17.370449599999997],[-71.8273615,17.3715366],[-71.82804649999999,17.3726286],[-71.8287235,17.373723499999997],[-71.82939449999999,17.3748235],[-71.8300575,17.3759275],[-71.8307135,17.3770355],[-71.8313625,17.3781474],[-71.8320035,17.379263400000003],[-71.83263749999999,17.3803824],[-71.83326350000002,17.3815064],[-71.83388249999999,17.382633299999995],[-71.8344945,17.3837643],[-71.83509849999999,17.3848993],[-71.8356955,17.3860383],[-71.8362845,17.3871803],[-71.8368655,17.388325199999997],[-71.8374395,17.3894742],[-71.8380055,17.390627199999997],[-71.8385645,17.3917832],[-71.8391155,17.3929431],[-71.83965950000001,17.394105100000004],[-71.84019450000001,17.395271100000002],[-71.8407225,17.3964411],[-71.84124350000002,17.397613],[-71.8417555,17.398788999999997],[-71.84226050000001,17.399967000000004],[-71.84275749999999,17.4011489],[-71.8432465,17.402333899999995],[-71.8437275,17.403521899999998],[-71.84420150000001,17.4047119],[-71.84466650000002,17.4059058],[-71.84512450000001,17.4071018],[-71.8455745,17.408300799999996],[-71.84601550000001,17.409502799999995],[-71.8464495,17.4107067],[-71.8468755,17.411913700000003],[-71.84729350000002,17.4131237],[-71.84770350000001,17.414335700000002],[-71.8481055,17.4155506],[-71.8483235,17.4162256],[-71.8483845,17.4164036],[-71.84878849999998,17.4176176],[-71.8491855,17.4188336],[-71.8495735,17.420052499999997],[-71.84995350000001,17.421273499999998],[-71.8503265,17.422496499999994],[-71.8506905,17.423721499999996],[-71.8510465,17.4249494],[-71.8513945,17.4261794],[-71.8515952,17.42685],[-71.89287089999999,17.576295000000002],[-71.8934912,17.5785831],[-71.894076,17.5808594],[-71.89462180000001,17.5831353],[-71.8951519,17.585412299999994],[-71.8956465,17.5876887],[-71.8961127,17.5899812],[-71.89655440000001,17.5922837],[-71.8969767,17.594635],[-71.9396881,17.841035400000003],[-71.900531,17.881115],[-71.8295092,17.953787],[-71.75888629999999,18.031551500000003],[-71.7583606,18.032026],[-71.75832849999999,18.032281100000002],[-71.7582587,18.032842199999997],[-71.75725560000002,18.034061300000005],[-71.7568586,18.0352141],[-71.7569605,18.0358466],[-71.757438,18.036377100000003],[-71.75782960000002,18.0369178],[-71.7577759,18.0372238],[-71.7574487,18.037948100000005],[-71.75707320000001,18.0385755],[-71.75697129999999,18.039554900000002],[-71.7569124,18.0409965],[-71.7560969,18.041962400000003],[-71.7554907,18.042431599999997],[-71.75530829999998,18.0427887],[-71.75480400000001,18.0432936],[-71.75425690000002,18.043783299999998],[-71.75342,18.0440791],[-71.75251879999999,18.0446351],[-71.751816,18.045236999999997],[-71.75120720000001,18.045708799999996],[-71.7508665,18.045790399999998],[-71.7502121,18.04628],[-71.74912310000002,18.046716099999998],[-71.7484391,18.0472236],[-71.7480341,18.0481111],[-71.74717580000001,18.049307199999998],[-71.7464382,18.050011],[-71.74573009999999,18.0504037],[-71.74551550000001,18.050921400000004],[-71.7452473,18.0516431],[-71.74494690000002,18.0520461],[-71.74468140000002,18.0525536],[-71.74431660000002,18.0531732],[-71.74431120000001,18.053923],[-71.74415570000002,18.0542316],[-71.74428710000001,18.054876700000005],[-71.74449090000002,18.055799899999997],[-71.74454190000002,18.0564451],[-71.74430050000001,18.056733199999996],[-71.74413420000002,18.0573121],[-71.7441718,18.057577300000002],[-71.74428980000002,18.058594799999998],[-71.74439170000001,18.059181300000002],[-71.74422540000003,18.0595307],[-71.74428440000003,18.059910600000002],[-71.74432200000001,18.060772599999996],[-71.74437560000001,18.0613693],[-71.74403760000001,18.062213299999996],[-71.7439008,18.0628967],[-71.74399740000001,18.063842799999996],[-71.74407520000001,18.0646518],[-71.7438338,18.065107599999997],[-71.743638,18.065490099999998],[-71.74344490000001,18.065793499999995],[-71.74287360000001,18.066148],[-71.7423479,18.0661097],[-71.74163970000002,18.0658573],[-71.74110060000002,18.0659669],[-71.7405561,18.0664616],[-71.74014840000001,18.066851800000002],[-71.73962540000002,18.0673286],[-71.7391775,18.0676933],[-71.7384613,18.0684557],[-71.73837279999998,18.0690447],[-71.73839960000001,18.0708093],[-71.738456,18.071658400000004],[-71.73861960000002,18.0721607],[-71.73867320000001,18.0726784],[-71.73861420000001,18.073754400000002],[-71.7385472,18.0740808],[-71.738456,18.074565300000003],[-71.7387002,18.075643899999996],[-71.73900060000001,18.0765211],[-71.73910790000001,18.0770922],[-71.7387216,18.0773982],[-71.73814229999999,18.077561400000004],[-71.7368977,18.077949],[-71.7363184,18.077928600000003],[-71.7358892,18.0782549],[-71.73567460000001,18.0784997],[-71.7355182,18.078819499999998],[-71.73505490000001,18.0797669],[-71.7353099,18.0809067],[-71.73584629999999,18.0816614],[-71.73676900000001,18.08274249999999],[-71.737075,18.083106199999996],[-71.7371981,18.083252499999997],[-71.73728400000002,18.0839256],[-71.7370371,18.0849862],[-71.73721780000001,18.085461799999997],[-71.73690300000001,18.087132999999998],[-71.736844,18.088183499999996],[-71.73722480000002,18.089238999999996],[-71.7383835,18.089590899999997],[-71.73940809999999,18.0898458],[-71.73970320000001,18.0893716],[-71.74001430000001,18.0893716],[-71.74012700000002,18.089646999999996],[-71.73982120000001,18.0904731],[-71.7397354,18.0911105],[-71.73889849999999,18.091987500000002],[-71.73812070000001,18.0925841],[-71.73698879999999,18.093150100000003],[-71.73662400000002,18.093512199999996],[-71.73625920000002,18.0942872],[-71.7356316,18.094751300000002],[-71.73538479999999,18.095500799999996],[-71.73595350000001,18.0968623],[-71.73750910000001,18.0975099],[-71.73757350000001,18.098544999999998],[-71.73725700000001,18.099707499999997],[-71.73743940000001,18.1005591],[-71.738008,18.100977200000003],[-71.7390756,18.100972100000003],[-71.74019140000001,18.1005285],[-71.74132860000002,18.100763],[-71.74189190000001,18.100681400000003],[-71.742541,18.100401],[-71.74265360000003,18.099967600000003],[-71.74303990000001,18.0994526],[-71.74349050000001,18.099049799999996],[-71.74413960000003,18.098963100000002],[-71.74481550000002,18.099274100000002],[-71.74562010000001,18.100084900000002],[-71.7460815,18.1008395],[-71.74621560000003,18.1013443],[-71.74598490000001,18.1020276],[-71.745942,18.102879100000003],[-71.7459098,18.1035725],[-71.7461727,18.1045158],[-71.7464302,18.105163400000002],[-71.74646770000001,18.1058262],[-71.74736890000001,18.1067032],[-71.74805020000001,18.1076669],[-71.74791610000001,18.1082889],[-71.74883340000001,18.109859300000004],[-71.74883340000001,18.1103998],[-71.7490373,18.111404200000003],[-71.7497347,18.1121945],[-71.74979370000001,18.112811400000005],[-71.74951470000002,18.1134793],[-71.7490963,18.1137393],[-71.74901050000001,18.1141268],[-71.74784100000001,18.114193100000005],[-71.74751910000002,18.114407300000003],[-71.74706320000003,18.115880700000005],[-71.74692370000002,18.118001700000004],[-71.74663400000001,18.1186033],[-71.74700950000002,18.119725000000003],[-71.7467306,18.121555300000004],[-71.74641940000002,18.121748999999998],[-71.7457167,18.1217337],[-71.74551290000001,18.121963100000006],[-71.74559330000001,18.1227789],[-71.74632820000001,18.123436499999997],[-71.74662330000002,18.124068700000006],[-71.748018,18.125429999999998],[-71.74816820000001,18.125975500000003],[-71.7477981,18.126291600000002],[-71.7467413,18.1259449],[-71.7454807,18.125562499999997],[-71.7449711,18.125542099999997],[-71.74481550000002,18.1257664],[-71.74489060000002,18.127071600000004],[-71.74616730000001,18.129039499999998],[-71.747487,18.130069300000002],[-71.74732600000002,18.130670900000002],[-71.74666080000002,18.130997100000005],[-71.7451803,18.130986900000003],[-71.74442920000003,18.130752400000002],[-71.74354950000001,18.131252000000003],[-71.7429165,18.131721100000004],[-71.74347440000001,18.132801800000003],[-71.74453650000001,18.133597100000003],[-71.74525540000002,18.134280300000004],[-71.74552360000003,18.1351469],[-71.74522320000003,18.1363296],[-71.74489060000002,18.137073900000004],[-71.7452768,18.137726400000002],[-71.74667160000001,18.137726400000002],[-71.7481522,18.138124100000002],[-71.7502121,18.138715400000002],[-71.7502121,18.139561700000005],[-71.74965420000002,18.1402142],[-71.74865640000002,18.1402346],[-71.74868860000001,18.1412235],[-71.74851690000001,18.1421004],[-71.74762640000003,18.141876100000005],[-71.74707930000001,18.1410298],[-71.74640340000002,18.1409483],[-71.74611370000002,18.141947400000003],[-71.7459313,18.1432728],[-71.74656430000002,18.14521],[-71.7469398,18.1456891],[-71.746972,18.1463722],[-71.7467359,18.1477791],[-71.74686470000002,18.148727299999997],[-71.74711410000002,18.149188600000002],[-71.74785170000001,18.1492625],[-71.748077,18.1494282],[-71.7481817,18.149716199999997],[-71.7487476,18.1494486],[-71.74906950000002,18.1489032],[-71.74951200000001,18.1481207],[-71.74980440000002,18.147391700000004],[-71.7503435,18.1466016],[-71.7507002,18.1453527],[-71.75120450000001,18.1438999],[-71.7517141,18.1434309],[-71.7526475,18.142814],[-71.7532913,18.1423247],[-71.753994,18.1421564],[-71.75445,18.143155600000004],[-71.75433199999999,18.1442312],[-71.7539457,18.144904100000005],[-71.75338249999999,18.1455974],[-71.7535648,18.1465047],[-71.75421930000002,18.146953300000003],[-71.7550991,18.147356000000002],[-71.7568586,18.147616],[-71.75716440000002,18.147391700000004],[-71.75716440000002,18.1459236],[-71.75729310000001,18.1454037],[-71.7580012,18.1456687],[-71.758602,18.146810600000002],[-71.75818360000001,18.147575200000002],[-71.7570571,18.1490433],[-71.7570678,18.1506949],[-71.75763640000001,18.152178300000003],[-71.7577598,18.153004100000004],[-71.7584304,18.153366000000002],[-71.7590205,18.1532386],[-71.7598573,18.1524077],[-71.76014900000001,18.152298700000003],[-71.76054060000001,18.1524007],[-71.760841,18.1527626],[-71.7609108,18.153246799999998],[-71.7609376,18.153858500000005],[-71.7609912,18.154271400000006],[-71.76099660000001,18.154827000000004],[-71.76126480000002,18.1552348],[-71.76149550000001,18.1556018],[-71.76186560000002,18.1560096],[-71.76255760000001,18.156218600000003],[-71.7638826,18.156458200000003],[-71.76463100000001,18.156931000000004],[-71.7646873,18.157030400000004],[-71.7647798,18.157489100000003],[-71.76442450000002,18.1581237],[-71.7641871,18.1586284],[-71.76406770000001,18.159130400000002],[-71.76392960000003,18.159514],[-71.7639618,18.1596835],[-71.7641468,18.1599498],[-71.7644003,18.1600161],[-71.7648751,18.159916700000004],[-71.76530149999999,18.159674600000002],[-71.76567440000001,18.159723],[-71.7665058,18.159672],[-71.7667902,18.1596669],[-71.7669752,18.1597969],[-71.76728640000002,18.1603015],[-71.76754650000001,18.161045700000003],[-71.7680454,18.1620652],[-71.76810440000001,18.1623633],[-71.76796500000002,18.1632936],[-71.76795960000003,18.1636758],[-71.76790860000001,18.164060700000004],[-71.768091,18.1643945],[-71.7682305,18.1647743],[-71.7682386,18.1650189],[-71.7677477,18.1653044],[-71.76735070000001,18.16547],[-71.76662390000003,18.1654624],[-71.76582460000002,18.165373199999998],[-71.76524520000001,18.165513299999997],[-71.7652398,18.165706999999998],[-71.76530960000001,18.165944],[-71.76541420000001,18.1660893],[-71.76585940000001,18.166423199999997],[-71.7659184,18.166509799999996],[-71.76603109999999,18.166899700000002],[-71.76598279999999,18.167065400000006],[-71.7656905,18.1673865],[-71.76559660000001,18.167585300000002],[-71.76554560000001,18.167921700000004],[-71.76578169999999,18.1682887],[-71.76625640000002,18.168423699999998],[-71.7668733,18.168225],[-71.76729980000002,18.168120499999997],[-71.7677879,18.167931900000003],[-71.7684585,18.167865600000006],[-71.76929270000001,18.167906400000003],[-71.76982640000001,18.167990500000002],[-71.770277,18.168069499999998],[-71.77064990000001,18.1680924],[-71.7711756,18.168051700000003],[-71.77179249999999,18.1680134],[-71.77284929999999,18.1679038],[-71.77374779999998,18.1677076],[-71.7741689,18.1675241],[-71.7743862,18.1672361],[-71.77456320000002,18.166884400000004],[-71.77469990000002,18.166589899999998],[-71.7748876,18.166243299999998],[-71.7751666,18.1661006],[-71.77537579999998,18.1661261],[-71.77575669999999,18.166121],[-71.7762931,18.1661668],[-71.7765935,18.1661515],[-71.776851,18.166161700000004],[-71.7770173,18.1662535],[-71.7772801,18.1665185],[-71.7772716,18.1666766],[-71.77745940000001,18.166941700000002],[-71.77770079999999,18.1671762],[-71.77800649999999,18.167415700000003],[-71.77830699999998,18.167589],[-71.77865560000001,18.1676451],[-71.7790097,18.167838800000002],[-71.77934229999998,18.168017199999998],[-71.7796427,18.1681701],[-71.77996990000001,18.168363799999998],[-71.7801791,18.168603299999997],[-71.7808229,18.169271000000002],[-71.7814183,18.169469799999998],[-71.7817724,18.169576799999998],[-71.7821211,18.169403499999998],[-71.78287739999999,18.1691079],[-71.7831457,18.169158900000003],[-71.78337629999999,18.169989700000002],[-71.78340320000001,18.170361800000002],[-71.7832369,18.170896900000002],[-71.7830545,18.171370900000003],[-71.7830491,18.172094700000002],[-71.783033,18.1723139],[-71.7830491,18.1725789],[-71.7832798,18.1727573],[-71.78364990000001,18.1728439],[-71.78393960000001,18.1730172],[-71.784637,18.173445400000002],[-71.7850661,18.173695100000003],[-71.7854792,18.173960100000006],[-71.7858332,18.1743118],[-71.7861658,18.174729799999998],[-71.7859202,18.176087000000003],[-71.78750020000001,18.176962000000003],[-71.787473,18.180509199999996],[-71.7865082,18.1862613],[-71.78420240000001,18.1883981],[-71.7840913,18.189308],[-71.7838282,18.1897459],[-71.78258779999999,18.1904383],[-71.7821511,18.191071800000003],[-71.78199940000002,18.19162],[-71.7814068,18.1930272],[-71.78093279999999,18.1931276],[-71.7800924,18.193122499999998],[-71.7783544,18.1931294],[-71.77593579999998,18.1947136],[-71.77224249999999,18.197811000000005],[-71.77229279999999,18.1991839],[-71.773843,18.2011688],[-71.7733614,18.202704299999997],[-71.77438629999999,18.2039763],[-71.7709527,18.2088562],[-71.77074609999998,18.210838600000002],[-71.76982430000001,18.212168100000003],[-71.7690704,18.219746999999998],[-71.76730330000001,18.221324],[-71.765856,18.2209204],[-71.763334,18.2214284],[-71.76166520000002,18.2258505],[-71.7600601,18.2258053],[-71.759041,18.2267719],[-71.757642,18.2268204],[-71.75737199999999,18.232213899999998],[-71.75865960000002,18.2335897],[-71.75882390000001,18.235424899999998],[-71.7573829,18.239769499999998],[-71.7548515,18.243310199999996],[-71.73077119999999,18.282644299999994],[-71.724932,18.292184499999998],[-71.70984209999999,18.316639199999997],[-71.7002963,18.3321079],[-71.69897069999999,18.3347206],[-71.69523849999999,18.340622199999995],[-71.79532300000001,18.378810400000003],[-71.80563839999999,18.3895637],[-71.80333529999999,18.392422699999997],[-71.8173053,18.397856800000003],[-71.8298162,18.398860400000004],[-71.8367658,18.417518100000002],[-71.84402310000002,18.429239099999997],[-71.85071229999998,18.4327354],[-71.8656267,18.438534299999997],[-71.87621920000001,18.4459131],[-71.8806772,18.4473317],[-71.90454590000002,18.4571839],[-71.91372070000001,18.4852653],[-71.8807337,18.490231199999997],[-71.8812582,18.4973083],[-71.8808014,18.503719299999997],[-71.95361330000001,18.5774642],[-71.9551275,18.5790867],[-71.9651288,18.603425],[-71.9674918,18.6052597],[-71.9693188,18.6047474],[-71.9755572,18.6053624],[-71.9780287,18.6074966],[-71.98050860000001,18.610759400000003],[-71.9819011,18.611269300000004],[-71.98201209999999,18.6124898],[-71.98480420000001,18.6152431],[-71.98513360000001,18.616972700000005],[-71.9863115,18.618905500000004],[-71.98760480000001,18.6186012],[-71.9898585,18.6186012],[-71.99051080000001,18.6175825],[-71.99588709999999,18.617180900000005],[-71.99836140000001,18.6180962],[-71.99958940000002,18.6177275],[-72.00039849999999,18.617487600000004],[-72.0029869,18.6205443],[-72.0054559,18.621766400000002],[-72.0082306,18.6250156],[-72.00795570000001,18.625571],[-72.0038507,18.627988400000007],[-72.00083729999999,18.627561100000005],[-71.99869400000001,18.629350600000002],[-71.99780140000001,18.631105800000004],[-71.9958508,18.631092700000004],[-71.99376740000001,18.6321699],[-71.9921015,18.6321162],[-71.9891411,18.634054900000006],[-71.9823693,18.636230400000002],[-71.9793642,18.639080200000002],[-71.975652,18.647615100000003],[-71.96636120000001,18.656664700000004],[-71.963774,18.6546278],[-71.96243009999999,18.6535046],[-71.95528209999999,18.6506985],[-71.95318520000001,18.651973500000004],[-71.9464513,18.648271],[-71.9445725,18.6479426],[-71.94113090000002,18.6439233],[-71.93161490000003,18.6375029],[-71.92763990000002,18.6352623],[-71.9256975,18.6347972],[-71.92150670000001,18.637184000000005],[-71.91661700000002,18.644705100000003],[-71.91465360000004,18.646442299999997],[-71.91430020000001,18.647655200000003],[-71.91333660000001,18.648569199999997],[-71.91171990000002,18.648416299999997],[-71.9104338,18.648313899999998],[-71.9082807,18.649018700000003],[-71.90656090000002,18.6488098],[-71.9057282,18.6482454],[-71.90467500000001,18.6483545],[-71.90352770000001,18.647387700000003],[-71.9021518,18.647536499999998],[-71.89714990000002,18.643969300000002],[-71.89569709999999,18.643665400000003],[-71.8842455,18.636524700000002],[-71.8830273,18.633742199999997],[-71.88230879999998,18.633161500000003],[-71.88080219999999,18.628027],[-71.8805349,18.6271108],[-71.87989189999999,18.627064000000004],[-71.87607539999999,18.62812],[-71.87338049999998,18.627912700000003],[-71.86930079999999,18.6355812],[-71.86930229999999,18.637052700000005],[-71.8685448,18.637563600000004],[-71.86517549999999,18.6364332],[-71.86036940000001,18.636705100000004],[-71.856068,18.635288000000003],[-71.8541893,18.636005800000003],[-71.85229999999999,18.6357576],[-71.8506333,18.6347366],[-71.8443314,18.6293592],[-71.83616430000001,18.629618999999998],[-71.8275655,18.633247400000002],[-71.81535219999999,18.630612499999998],[-71.8121345,18.634078500000005],[-71.80713,18.6353476],[-71.80693029999999,18.6450119],[-71.80893079999998,18.651473000000003],[-71.8095417,18.6613317],[-71.80298979999999,18.6698318],[-71.80161090000001,18.680721799999997],[-71.8041962,18.6852883],[-71.79768990000002,18.6917939],[-71.79480590000001,18.6910224],[-71.7940075,18.689158300000003],[-71.78888669999999,18.689476799999998],[-71.785856,18.691970400000006],[-71.7852303,18.702529899999995],[-71.78379849999999,18.706106899999998],[-71.7751742,18.7103185],[-71.7730989,18.709858500000003],[-71.74958120000001,18.718108100000002],[-71.73795490000002,18.722193299999997],[-71.72875779999998,18.772236699999997],[-71.72669040000001,18.782052699999998],[-71.7263339,18.783745399999997],[-71.7220164,18.8042426],[-71.7220126,18.807862000000004],[-71.72225370000001,18.825728999999995],[-71.72080940000001,18.832743899999997],[-71.725526,18.839307700000003],[-71.72607789999999,18.841646199999996],[-71.72535799999999,18.845036399999998],[-71.7248838,18.846995700000004],[-71.72575739999999,18.8488796],[-71.72527809999998,18.850613199999998],[-71.7263967,18.851598600000003],[-71.7265612,18.854842],[-71.7258591,18.8563369],[-71.7263992,18.8573302],[-71.7256754,18.858960300000003],[-71.72583119999999,18.863629499999995],[-71.7251653,18.875451100000003],[-71.72229809999999,18.8784483],[-71.72582879999999,18.8789331],[-71.7273133,18.8771732],[-71.7346813,18.878346099999998],[-71.7374525,18.8780807],[-71.73659370000001,18.885093499999996],[-71.7391372,18.8913483],[-71.74353370000001,18.893005000000002],[-71.74793240000001,18.896999400000002],[-71.7603184,18.9058181],[-71.76816020000001,18.9068755],[-71.7720596,18.9191471],[-71.7731187,18.923371799999998],[-71.7743395,18.924741299999997],[-71.7762835,18.9298447],[-71.7787542,18.937524],[-71.78167440000001,18.9430558],[-71.7828834,18.948255999999997],[-71.7827586,18.9493957],[-71.78275649999999,18.949789199999994],[-71.78277199999998,18.949921],[-71.78274709999998,18.950083499999998],[-71.782546,18.950859400000002],[-71.7824202,18.951272499999998],[-71.7820494,18.9517689],[-71.7817948,18.952196999999998],[-71.7817005,18.952574499999997],[-71.7817665,18.953002499999997],[-71.78173819999999,18.953293799999997],[-71.78146480000001,18.953968600000003],[-71.78121340000003,18.954462],[-71.78122910000002,18.9546106],[-71.7813045,18.954720599999998],[-71.78151820000001,18.9547979],[-71.7817508,18.954821700000004],[-71.7820462,18.954732499999995],[-71.78217509999999,18.9547652],[-71.78262450000001,18.955068400000002],[-71.7830394,18.9552527],[-71.7835014,18.955407199999996],[-71.78452600000001,18.955430999999997],[-71.78554109999999,18.9554697],[-71.78622630000001,18.9555588],[-71.78677309999999,18.9556777],[-71.78703709999999,18.955799599999995],[-71.7874551,18.9558739],[-71.7880648,18.9559869],[-71.78869340000001,18.9562484],[-71.78926860000001,18.956649699999996],[-71.78968970000001,18.9571134],[-71.7900008,18.9575117],[-71.79029000000001,18.9577317],[-71.7904974,18.9578327],[-71.79090910000001,18.957811900000003],[-71.79143400000001,18.957645499999998],[-71.79188340000002,18.957372],[-71.7923611,18.956926199999998],[-71.7928671,18.9563971],[-71.79324120000001,18.9558977],[-71.79355860000001,18.9550743],[-71.7936372,18.9547503],[-71.79378799999999,18.953641599999997],[-71.79413060000002,18.952948999999997],[-71.7943977,18.9528063],[-71.79476860000001,18.952723099999996],[-71.79528400000001,18.9528509],[-71.7957366,18.953172],[-71.79595970000001,18.9535019],[-71.79617350000001,18.953817],[-71.79626460000003,18.9542094],[-71.79628350000002,18.954679],[-71.79624890000001,18.9555856],[-71.7962583,18.9560909],[-71.79618920000001,18.9563882],[-71.79624570000001,18.956596199999996],[-71.79645000000001,18.956777499999998],[-71.7967706,18.956869700000002],[-71.79750290000001,18.956944],[-71.79794920000002,18.956831],[-71.7983892,18.956777499999998],[-71.79935400000001,18.9564387],[-71.79960860000001,18.956019599999998],[-71.8002372,18.955627199999995],[-71.80077779999998,18.9552794],[-71.8012021,18.954970300000003],[-71.8013969,18.9547593],[-71.8017332,18.9545542],[-71.8023146,18.9544561],[-71.80266350000001,18.9544739],[-71.80288029999998,18.9545007],[-71.8031726,18.9546701],[-71.80346490000001,18.9550357],[-71.8034618,18.9552646],[-71.80345229999999,18.955778799999997],[-71.8034209,18.956076],[-71.8033675,18.9563971],[-71.8032261,18.956640799999995],[-71.80319460000001,18.9568459],[-71.8031475,18.9572769],[-71.80316320000001,18.957589],[-71.8032355,18.957701999999998],[-71.8035215,18.957918900000003],[-71.80384839999999,18.9582697],[-71.8041878,18.958584799999997],[-71.80461520000001,18.958950400000003],[-71.8048792,18.9590276],[-71.80507409999998,18.9590247],[-71.8053066,18.9589355],[-71.80548259999999,18.958730399999997],[-71.80577179999997,18.958688799999997],[-71.80612060000001,18.958700699999998],[-71.8062589,18.9587601],[-71.8067209,18.959113799999997],[-71.8068749,18.959232699999998],[-71.8078052,18.959616199999996],[-71.8081352,18.959746999999997],[-71.80845269999999,18.9598213],[-71.80905609999999,18.9599491],[-71.80974749999999,18.9600056],[-71.81033839999999,18.960011499999997],[-71.8108161,18.9599312],[-71.81142270000001,18.9599015],[-71.8117558,18.9598094],[-71.8120355,18.9598242],[-71.8122335,18.9599431],[-71.81243779999998,18.960139299999994],[-71.81257609999999,18.960385999999996],[-71.8126735,18.9606654],[-71.812617,18.9610667],[-71.8126201,18.9615244],[-71.8127238,18.961785999999996],[-71.81277409999998,18.962190199999995],[-71.8127207,18.962856],[-71.81259809999999,18.963382099999997],[-71.8126641,18.963622899999994],[-71.81299729999999,18.9639201],[-71.8133084,18.9642649],[-71.8138333,18.9644611],[-71.81425440000002,18.964603699999998],[-71.81481380000001,18.964704799999996],[-71.8151501,18.964725599999998],[-71.81551470000001,18.964713699999997],[-71.81601440000001,18.964434299999997],[-71.81639779999999,18.9641549],[-71.8169824,18.963643699999995],[-71.81754500000001,18.962722299999992],[-71.81767070000001,18.962597399999996],[-71.8184219,18.962618199999994],[-71.81864809999999,18.962656899999995],[-71.81906300000001,18.962906499999995],[-71.8194967,18.9630254],[-71.82017239999999,18.963212699999996],[-71.82073499999998,18.963230499999995],[-71.82173129999998,18.9632513],[-71.82234099999998,18.9632513],[-71.823243,18.963405899999998],[-71.824145,18.963539599999994],[-71.8248962,18.963613999999996],[-71.8256096,18.963756599999996],[-71.8259679,18.9639944],[-71.826191,18.9642887],[-71.8262445,18.964484799999997],[-71.82626330000001,18.964719599999995],[-71.82619729999999,18.9649812],[-71.8258233,18.965207099999997],[-71.82544299999999,18.965314099999997],[-71.8249339,18.965584599999996],[-71.8245127,18.965739099999993],[-71.8242362,18.965795599999996],[-71.82371129999999,18.965807499999997],[-71.82353849999998,18.965911499999997],[-71.8232462,18.9662504],[-71.82304189999999,18.966526799999993],[-71.82273699999998,18.966803199999998],[-71.822165,18.967234199999996],[-71.8219042,18.967549199999993],[-71.82184129999999,18.967897],[-71.8218162,18.968366599999996],[-71.82187269999999,18.968645999999993],[-71.821989,18.968836199999995],[-71.82214929999999,18.968919399999997],[-71.82227819999999,18.968877799999998],[-71.8225139,18.968800499999997],[-71.822803,18.968738099999996],[-71.82329960000001,18.968684599999996],[-71.82376789999999,18.9685657],[-71.8240947,18.968378499999996],[-71.8244562,18.968102099999996],[-71.82466360000002,18.968024799999995],[-71.8248302,18.968119899999994],[-71.82512249999999,18.968387399999997],[-71.82539269999998,18.968527099999996],[-71.82608729999998,18.968538999999993],[-71.82645819999999,18.968527099999996],[-71.82671279999998,18.968428999999993],[-71.826917,18.968265499999998],[-71.82725960000002,18.967858300000003],[-71.8276148,18.9673174],[-71.827885,18.9668626],[-71.8283156,18.9662771],[-71.8286645,18.965988799999998],[-71.82934329999999,18.965352699999997],[-71.8301982,18.964660199999997],[-71.8308645,18.9643214],[-71.83143960000001,18.9635753],[-71.83183879999999,18.962930299999996],[-71.83204309999999,18.962787699999996],[-71.8323259,18.962757899999996],[-71.8325459,18.962858999999998],[-71.83291990000001,18.963075999999997],[-71.83324360000002,18.963346399999995],[-71.83354849999999,18.963741799999994],[-71.8340514,18.9642857],[-71.8343217,18.9648148],[-71.8345071,18.965474599999997],[-71.8346328,18.965819399999997],[-71.8346988,18.966294899999998],[-71.83465170000001,18.966633799999993],[-71.8346925,18.967644299999996],[-71.8347491,18.967843499999997],[-71.83473649999999,18.968339799999992],[-71.8348622,18.968797599999995],[-71.8351262,18.969733799999993],[-71.83528340000001,18.970022099999998],[-71.8355159,18.9702064],[-71.8359654,18.970331199999997],[-71.8365122,18.970334199999996],[-71.83694279999999,18.9701707],[-71.8373231,18.969921],[-71.83775370000001,18.969680299999997],[-71.838354,18.969549499999992],[-71.83871219999999,18.969445499999996],[-71.8390045,18.969412799999994],[-71.8392308,18.969228499999996],[-71.8397934,18.9685687],[-71.83997879999998,18.968030699999996],[-71.84010140000001,18.967700799999996],[-71.84000400000001,18.967442199999994],[-71.8399128,18.966797299999996],[-71.83993799999999,18.9664911],[-71.84011400000001,18.966309799999994],[-71.8404,18.9661731],[-71.84060740000001,18.966178999999997],[-71.8408337,18.9662831],[-71.84104740000001,18.966330599999996],[-71.8417797,18.966360299999998],[-71.84230769999999,18.966339499999993],[-71.84259060000001,18.966345499999996],[-71.84273509999998,18.9662771],[-71.84284829999999,18.9660156],[-71.8429426,18.964942599999997],[-71.84302430000001,18.964686999999998],[-71.843238,18.9642946],[-71.8432883,18.963961700000002],[-71.8435051,18.963744699999996],[-71.8437974,18.963545599999996],[-71.84406460000002,18.9629184],[-71.84406770000001,18.962439899999993],[-71.84386340000002,18.962023799999994],[-71.843568,18.961735499999996],[-71.8430683,18.961536299999995],[-71.8423674,18.9613639],[-71.84169480000001,18.9611618],[-71.8414528,18.960921],[-71.84100340000002,18.960388999999996],[-71.8402523,18.959541899999998],[-71.8397148,18.9590693],[-71.8395891,18.9588255],[-71.83963940000001,18.9584986],[-71.83975879999998,18.958382599999997],[-71.8400731,18.9583916],[-71.8404911,18.958349899999995],[-71.84066400000002,18.958317199999996],[-71.8410851,18.958326199999995],[-71.84151570000002,18.9580943],[-71.84169800000001,18.957907100000003],[-71.84174829999999,18.9576217],[-71.8418991,18.9573155],[-71.8425466,18.9568727],[-71.84283879999998,18.9567181],[-71.8431028,18.956634899999997],[-71.8434108,18.9566676],[-71.84381940000002,18.956828100000003],[-71.84436000000001,18.9572085],[-71.84476860000001,18.957502799999997],[-71.84521170000001,18.958037799999996],[-71.845526,18.9586977],[-71.8457617,18.9590276],[-71.8459377,18.959512099999998],[-71.84606340000002,18.9601631],[-71.8461703,18.960594099999998],[-71.8463526,18.9610607],[-71.8463243,18.961447099999997],[-71.8461357,18.962062399999997],[-71.84612630000001,18.962338799999994],[-71.84629290000001,18.962677699999997],[-71.84643109999999,18.962847099999998],[-71.846802,18.962963],[-71.847088,18.9630314],[-71.8477574,18.9630789],[-71.8480089,18.9631384],[-71.84852430000001,18.963319699999996],[-71.84902400000001,18.963382099999997],[-71.8492786,18.963286999999998],[-71.8494326,18.9631503],[-71.8494923,18.962897599999998],[-71.8494703,18.962401299999996],[-71.84942320000002,18.962080199999996],[-71.84921890000001,18.961622499999994],[-71.8488449,18.9610161],[-71.84878199999999,18.960766499999995],[-71.8488229,18.960596999999996],[-71.84903340000001,18.960356299999997],[-71.84925340000002,18.9601661],[-71.84960910000001,18.9599873],[-71.8498807,18.9599143],[-71.8502415,18.9596549],[-71.85065320000001,18.9591525],[-71.85075069999999,18.9587661],[-71.8511435,18.958153799999998],[-71.8517124,18.9574434],[-71.85236609999998,18.9564417],[-71.85275579999998,18.955764],[-71.85307639999999,18.955439999999996],[-71.8538275,18.9549406],[-71.8542424,18.954741499999997],[-71.8545347,18.954688],[-71.85484269999999,18.954741499999997],[-71.85503749999998,18.954899],[-71.85519779999998,18.9551636],[-71.8552984,18.955514299999997],[-71.85538639999999,18.955683699999998],[-71.85533929999998,18.955942299999997],[-71.85528269999999,18.956254400000002],[-71.85513499999999,18.9566171],[-71.8549275,18.9570748],[-71.85474529999999,18.9573215],[-71.85458179999999,18.957598],[-71.85456930000001,18.957812],[-71.8547547,18.958239999999996],[-71.85513179999998,18.958507499999996],[-71.85546809999998,18.9589177],[-71.8559238,18.9594319],[-71.8562507,18.959901600000002],[-71.8566027,18.960311799999996],[-71.8574513,18.9612153],[-71.8578316,18.961887100000002],[-71.85802009999999,18.962273499999995],[-71.85817099999998,18.962650999999997],[-71.85854809999998,18.9630612],[-71.85870529999998,18.963233499999994],[-71.8590258,18.9632871],[-71.8593244,18.963266199999996],[-71.8596041,18.963295999999996],[-71.8600284,18.9633257],[-71.86053129999999,18.963272199999995],[-71.8608613,18.963188999999996],[-71.8610121,18.963093899999997],[-71.8610467,18.962876899999998],[-71.86099960000001,18.962662899999994],[-71.8607796,18.962457799999996],[-71.86069470000001,18.962312099999995],[-71.8607261,18.962130799999994],[-71.8607104,18.9619673],[-71.86055640000001,18.961756299999998],[-71.8604559,18.961301499999998],[-71.8603899,18.9610311],[-71.8604056,18.960647599999994],[-71.8604087,18.9603771],[-71.86006300000001,18.9596876],[-71.86009440000001,18.9595003],[-71.86025790000001,18.9593755],[-71.8604307,18.9592744],[-71.86061930000001,18.959336799999996],[-71.8609053,18.959351700000003],[-71.8612981,18.9590931],[-71.8617916,18.958739399999995],[-71.8620304,18.9584689],[-71.86216560000001,18.958049799999994],[-71.86217819999999,18.957782299999998],[-71.8620116,18.9575772],[-71.86178209999999,18.957434499999998],[-71.86177269999999,18.9572205],[-71.8617004,18.956792399999998],[-71.86185760000001,18.956352499999998],[-71.8620524,18.9559631],[-71.86221590000001,18.955701599999998],[-71.86229440000001,18.955249799999994],[-71.8622002,18.954893100000003],[-71.86208069999999,18.9545988],[-71.86182930000001,18.9544918],[-71.86162190000002,18.9541945],[-71.8615024,18.953891300000002],[-71.8614019,18.9536357],[-71.8610121,18.953320599999998],[-71.8606759,18.9530353],[-71.8605847,18.952720199999995],[-71.860547,18.952503199999995],[-71.8603647,18.9520752],[-71.8603804,18.9517036],[-71.8604653,18.9512072],[-71.8604716,18.950440299999997],[-71.8603836,18.949685199999998],[-71.8602767,18.949069899999998],[-71.86010390000001,18.948418899999997],[-71.86016360000002,18.948192999999996],[-71.8603364,18.948041399999997],[-71.86055640000001,18.947898700000003],[-71.8608927,18.947779799999996],[-71.86122590000002,18.947699599999996],[-71.861471,18.9477174],[-71.8617947,18.9478898],[-71.86205869999999,18.948041399999997],[-71.8624516,18.948112799999993],[-71.8628602,18.948198999999995],[-71.8632027,18.948166299999997],[-71.8634479,18.948002799999994],[-71.8638219,18.9478304],[-71.86405440000001,18.9474647],[-71.86424930000001,18.947348799999997],[-71.86459500000001,18.947224],[-71.8655976,18.9467513],[-71.86649960000001,18.9462014],[-71.8670465,18.9459903],[-71.86733249999999,18.9459844],[-71.86761220000001,18.946040899999996],[-71.8679673,18.946159799999997],[-71.8684262,18.946272699999998],[-71.8689039,18.946260799999997],[-71.86911760000001,18.946379699999998],[-71.8692528,18.946590799999996],[-71.8692685,18.9468791],[-71.8694068,18.947093199999998],[-71.8695985,18.947420199999996],[-71.869853,18.9475509],[-71.8706859,18.947693599999997],[-71.87134909999999,18.947788799999998],[-71.8721276,18.9477314],[-71.87278639999998,18.9478836],[-71.87313079999998,18.948007199999996],[-71.8733646,18.948190399999998],[-71.87343839999998,18.948322599999994],[-71.87373299999999,18.948452699999997],[-71.87438119999999,18.948754599999997],[-71.8749754,18.948810299999998],[-71.87548619999998,18.948801],[-71.87595259999999,18.948660499999995],[-71.8763554,18.948433699999995],[-71.8764226,18.948088999999996],[-71.87644179999998,18.947744299999997],[-71.8763554,18.9473542],[-71.87610609999999,18.9471637],[-71.87581829999998,18.947073],[-71.87535789999998,18.946936899999997],[-71.8752237,18.946728299999997],[-71.87523329999999,18.9464561],[-71.87530039999999,18.9461749],[-71.8756169,18.945784799999995],[-71.87608689999999,18.945376599999996],[-71.87630749999998,18.945276799999995],[-71.8766432,18.945358499999998],[-71.8768638,18.945358499999998],[-71.87760229999999,18.944795999999997],[-71.87830209999997,18.943899],[-71.87838349999998,18.943433299999995],[-71.8779986,18.942659399999997],[-71.87813489999999,18.942452899999996],[-71.87873359999999,18.942259499999995],[-71.87973849999997,18.941704599999998],[-71.88275859999999,18.942103899999996],[-71.88338209999998,18.9444251],[-71.88412390000002,18.946737599999995],[-71.88423940000001,18.948208899999997],[-71.8839602,18.9492559],[-71.883279,18.950340999999998],[-71.88312340000002,18.950767],[-71.8831231,18.9513012],[-71.8849892,18.953397199999998],[-71.88543699999998,18.9545481],[-71.8857439,18.956046299999997],[-71.88572579999999,18.9568248],[-71.88593509999998,18.957449599999997],[-71.88655829999999,18.958578],[-71.88645709999999,18.9592834],[-71.8856067,18.959891600000002],[-71.8848003,18.960094499999997],[-71.88426400000002,18.959978200000002],[-71.88318729999999,18.9590379],[-71.88215729999999,18.957901400000004],[-71.88102380000001,18.9568294],[-71.8795499,18.9566943],[-71.8781114,18.9568285],[-71.8761537,18.9572633],[-71.8754292,18.9576071],[-71.87488229999998,18.9582733],[-71.8743935,18.961317499999996],[-71.8736944,18.9636644],[-71.87362320000001,18.9643074],[-71.87389639999999,18.9650854],[-71.87591289999999,18.967526299999996],[-71.87652320000001,18.969589499999994],[-71.8764944,18.970628599999998],[-71.87617789999999,18.9710993],[-71.8755248,18.9713813],[-71.87464920000001,18.9715664],[-71.87295509999998,18.972540299999995],[-71.8682977,18.9745629],[-71.866889,18.975626599999995],[-71.8668133,18.9763974],[-71.8677287,18.9783584],[-71.8683594,18.9790593],[-71.8686426,18.980133199999994],[-71.8684666,18.9809284],[-71.86813509999999,18.981310899999997],[-71.86791500000001,18.981516599999996],[-71.8677843,18.981641699999997],[-71.86688729999999,18.982134899999995],[-71.8647663,18.982849499999993],[-71.86406540000002,18.983454],[-71.8637035,18.983661899999998],[-71.8633162,18.983556799999995],[-71.86305809999999,18.983327299999996],[-71.86285279999998,18.982893699999998],[-71.86278159999999,18.982464899999997],[-71.86287619999999,18.9818471],[-71.86333839999999,18.979556],[-71.8632108,18.9788331],[-71.86276769999999,18.978286799999996],[-71.86213889999999,18.977786799999997],[-71.860809,18.9770528],[-71.85856849999999,18.976506699999998],[-71.8574664,18.9766549],[-71.85637849999998,18.9771263],[-71.85559009999999,18.977874800000002],[-71.85528179999999,18.978335199999997],[-71.85532909999999,18.978850100000002],[-71.8563569,18.9811588],[-71.85630789999999,18.9818908],[-71.85585449999999,18.982693599999994],[-71.8522084,18.986280299999997],[-71.85128160000001,18.9868821],[-71.8511735,18.9872707],[-71.8513263,18.988755599999998],[-71.85178189999999,18.989342199999992],[-71.8522759,18.9903734],[-71.8523546,18.9916764],[-71.8522836,18.992300599999997],[-71.85206649999999,18.992582599999995],[-71.8516766,18.992795599999997],[-71.8509627,18.992793399999996],[-71.8489098,18.992249799999993],[-71.8480089,18.9922041],[-71.84665700000001,18.991781],[-71.8462161,18.991461],[-71.84466990000003,18.9911645],[-71.84429090000002,18.9912481],[-71.84395920000001,18.9916149],[-71.8436925,18.9920651],[-71.8433119,18.9934776],[-71.84305590000001,18.996428899999998],[-71.8426086,18.997870300000002],[-71.84191840000001,18.9991533],[-71.841373,18.999736599999995],[-71.8405347,19.000129499999996],[-71.83937829999998,19.000217],[-71.83840079999999,18.9998979],[-71.83713940000001,18.9999535],[-71.8367198,19.000479499999997],[-71.8361866,19.000654400000002],[-71.83571869999999,19.000708799999998],[-71.8350569,19.000544299999998],[-71.8346041,19.0006545],[-71.834311,19.001055200000003],[-71.83412470000002,19.0028304],[-71.8338276,19.0039345],[-71.83382160000001,19.005075],[-71.833459,19.005486599999998],[-71.83286129999999,19.005523799999995],[-71.8317831,19.005283199999997],[-71.83021370000002,19.004419799999997],[-71.8299304,19.0036876],[-71.82988409999999,19.000891400000004],[-71.82939629999998,18.9988802],[-71.82839329999999,18.996520699999998],[-71.8285037,18.995044699999998],[-71.82810829999998,18.9941376],[-71.8274669,18.9937214],[-71.8267544,18.993729999999996],[-71.8239198,18.9940389],[-71.82048229999998,18.9960555],[-71.8191314,18.996682999999997],[-71.8181619,18.996763299999998],[-71.8143287,18.996023899999997],[-71.80956590000001,18.998045299999998],[-71.80693819999999,18.998383999999998],[-71.80482520000001,18.998859799999998],[-71.8045763,18.998956],[-71.80442950000001,18.9992673],[-71.80533819999998,19.0020158],[-71.8052567,19.002791199999997],[-71.8049128,19.0034941],[-71.8040314,19.004312799999997],[-71.8012051,19.005130899999997],[-71.7987757,19.0052137],[-71.79665790000001,19.004048700000002],[-71.79621240000002,19.002705799999998],[-71.79610020000001,19.000201999999998],[-71.7965877,18.998759999999997],[-71.79748120000001,18.9978407],[-71.7983716,18.996539599999995],[-71.79831440000001,18.9961154],[-71.79805660000001,18.995751999999996],[-71.79637960000001,18.9948405],[-71.7953422,18.994686499999997],[-71.79423050000001,18.994699199999996],[-71.79389390000001,18.9943783],[-71.79355390000002,18.9939026],[-71.79265000000001,18.9933817],[-71.79100950000002,18.9929743],[-71.7890564,18.992889599999998],[-71.7884108,18.9930737],[-71.78756430000001,18.9942907],[-71.78651920000001,18.9968259],[-71.78726790000002,18.998573899999997],[-71.7887257,18.999691799999997],[-71.79017360000002,19.0003251],[-71.7910708,19.000884600000003],[-71.7913786,19.001856500000002],[-71.7908772,19.0071335],[-71.7904983,19.0080885],[-71.79001470000001,19.008582099999998],[-71.78642,19.0105976],[-71.7855251,19.0121109],[-71.7849028,19.012311999999998],[-71.78445140000001,19.0122629],[-71.78258199999999,19.010891300000004],[-71.7813816,19.010685900000002],[-71.7796111,19.0108425],[-71.77742930000001,19.0114292],[-71.7762153,19.012183],[-71.77572819999999,19.012623599999998],[-71.7756107,19.013312],[-71.7757996,19.014235400000004],[-71.7769838,19.015844700000002],[-71.7780199,19.0161596],[-71.7809063,19.0160896],[-71.7819424,19.0165794],[-71.78231249999999,19.017524],[-71.7820164,19.0185386],[-71.78062350000002,19.0198825],[-71.779683,19.0210256],[-71.77833949999999,19.022028999999996],[-71.7772378,19.023261],[-71.7753032,19.0253694],[-71.7735029,19.0279732],[-71.77248179999998,19.028785999999997],[-71.7721191,19.029636999999997],[-71.7718504,19.0303482],[-71.77142390000002,19.0309595],[-71.7709217,19.031317100000003],[-71.7702063,19.0315967],[-71.769374,19.031824300000004],[-71.76873429999999,19.031876400000005],[-71.7677438,19.031668300000003],[-71.767331,19.031200100000003],[-71.76672570000001,19.029880000000002],[-71.7659897,19.027890100000004],[-71.765632,19.0271358],[-71.76512890000001,19.026329099999998],[-71.76430340000002,19.0260527],[-71.76315980000001,19.0261909],[-71.7618185,19.026548599999998],[-71.76119080000001,19.0271013],[-71.76045990000001,19.0284344],[-71.7600128,19.029637499999996],[-71.7601762,19.0303121],[-71.76064050000001,19.0309218],[-71.76168950000002,19.031970300000005],[-71.7620678,19.0325881],[-71.76273849999998,19.0331489],[-71.7630223,19.033612299999998],[-71.7632028,19.034351900000004],[-71.7632458,19.034920900000003],[-71.76310320000002,19.0352712],[-71.7625854,19.035733999999998],[-71.7619761,19.0361535],[-71.7612788,19.0369525],[-71.7604441,19.037898000000006],[-71.75966580000001,19.0385506],[-71.7581901,19.0395161],[-71.75724970000002,19.040245199999998],[-71.75660520000001,19.040524799999996],[-71.7556508,19.040714599999998],[-71.754883,19.040887700000003],[-71.75455550000001,19.0411307],[-71.75426310000002,19.04168],[-71.7535024,19.0439173],[-71.75300229999999,19.0448294],[-71.75217109999998,19.0460712],[-71.7517908,19.0464807],[-71.7511568,19.046790299999998],[-71.7504841,19.0470633],[-71.7497445,19.0471066],[-71.74920220000001,19.046980100000003],[-71.74881690000001,19.046967000000002],[-71.74816460000002,19.046988700000004],[-71.74476430000001,19.045783799999995],[-71.74228490000002,19.0435101],[-71.74128170000002,19.0432576],[-71.740177,19.0434686],[-71.7394859,19.044126],[-71.73876920000001,19.0445261],[-71.7380288,19.044953300000003],[-71.7373113,19.0466849],[-71.73718380000001,19.0473381],[-71.7374082,19.0482287],[-71.73779520000001,19.0484054],[-71.73798790000001,19.048795499999997],[-71.7378709,19.0491076],[-71.73726330000002,19.049696599999997],[-71.7343017,19.0499778],[-71.7322925,19.050046899999998],[-71.72878539999999,19.051117400000003],[-71.72465720000001,19.052602199999995],[-71.72275749999999,19.0538798],[-71.7222095,19.0550194],[-71.72231909999999,19.0563315],[-71.7222095,19.057298400000004],[-71.7214424,19.058610499999997],[-71.72056560000001,19.059542799999996],[-71.7191408,19.059231999999998],[-71.71742380000002,19.0583343],[-71.7168758,19.058783199999997],[-71.7160283,19.061308],[-71.71624750000001,19.0626547],[-71.71686860000001,19.063034499999997],[-71.717307,19.063276199999997],[-71.71924320000002,19.0635524],[-71.72037569999999,19.064311999999997],[-71.7204122,19.0659004],[-71.71946240000001,19.0671779],[-71.71621100000002,19.070389],[-71.71471320000002,19.0710795],[-71.713398,19.0707688],[-71.71182710000001,19.070389],[-71.71058500000001,19.070112799999997],[-71.71018310000001,19.0693531],[-71.7100005,19.068662599999996],[-71.71032790000001,19.0678448],[-71.71021970000002,19.067247],[-71.7097754,19.066932199999997],[-71.7088314,19.067592199999996],[-71.7075623,19.0681781],[-71.70726060000003,19.068317299999997],[-71.7053243,19.0695603],[-71.7031715,19.0714733],[-71.7020007,19.072247899999997],[-71.70126120000002,19.073488400000002],[-71.70162830000001,19.074771900000002],[-71.7023396,19.075468400000002],[-71.70316530000001,19.076045],[-71.7054145,19.0760508],[-71.70771300000001,19.0764061],[-71.7096355,19.0772738],[-71.71130940000002,19.0780864],[-71.7121065,19.0784676],[-71.71229760000001,19.080942699999998],[-71.7121373,19.082241299999996],[-71.71169980000002,19.083662199999996],[-71.70998060000001,19.085217099999998],[-71.7090316,19.085345199999995],[-71.7036583,19.0844018],[-71.7017258,19.0846515],[-71.69992920000001,19.0861914],[-71.6991438,19.0867717],[-71.69808429999999,19.086702599999995],[-71.6973172,19.086633599999995],[-71.697171,19.087065100000004],[-71.6966961,19.0878419],[-71.69651340000001,19.0888776],[-71.6968592,19.0907888],[-71.69816370000001,19.0929126],[-71.699197,19.093986700000002],[-71.6988224,19.094609199999997],[-71.69877079999998,19.094877700000005],[-71.6988095,19.0952683],[-71.69933909999999,19.0959762],[-71.70101820000001,19.096610899999998],[-71.7020127,19.096647499999996],[-71.7026327,19.0966597],[-71.70342060000002,19.0967085],[-71.70445190000001,19.097342799999996],[-71.704735,19.098102299999997],[-71.7053926,19.098533799999995],[-71.7061415,19.0990085],[-71.70638809999998,19.099129299999998],[-71.706452,19.099552199999998],[-71.70651590000001,19.100061400000005],[-71.706178,19.1004066],[-71.70529990000001,19.101421300000002],[-71.7050287,19.1030202],[-71.70464120000001,19.103374100000003],[-71.70360790000001,19.103959900000003],[-71.70338829999999,19.104435900000002],[-71.70313,19.105082799999998],[-71.7024842,19.105985900000004],[-71.7014767,19.1065961],[-71.70105050000001,19.106815800000003],[-71.69952640000001,19.107758900000004],[-71.69840269999999,19.1084546],[-71.69687859999999,19.108649799999995],[-71.6954966,19.1081861],[-71.6945408,19.107575800000003],[-71.69402410000001,19.107160900000004],[-71.6932621,19.106611700000002],[-71.69245629999999,19.1061095],[-71.6920544,19.105643499999996],[-71.69208079999999,19.105454100000003],[-71.6919847,19.1053896],[-71.6913275,19.1053145],[-71.69081729999999,19.1050665],[-71.68904579999999,19.1053416],[-71.687287,19.1034484],[-71.6849042,19.102954200000003],[-71.68213749999998,19.1074262],[-71.68312390000001,19.108427799999998],[-71.6813619,19.109181200000002],[-71.6797646,19.108809400000002],[-71.67924879999998,19.109441],[-71.68027579999999,19.110307900000002],[-71.67980289999998,19.112122499999998],[-71.68057169999999,19.113562400000003],[-71.6825746,19.1145372],[-71.6818494,19.115670400000003],[-71.6825614,19.117100300000004],[-71.679633,19.115975600000006],[-71.67849249999998,19.117159000000004],[-71.67791229999999,19.1173062],[-71.67772279999998,19.1172928],[-71.6772545,19.1170426],[-71.67694109999998,19.116774000000003],[-71.67672629999998,19.116386600000002],[-71.6767242,19.1146122],[-71.67487779999998,19.113405400000005],[-71.67296239999999,19.1128022],[-71.67247749999997,19.1156726],[-71.6713136,19.1159493],[-71.67107799999998,19.116811500000004],[-71.67056279999998,19.117406900000002],[-71.6692752,19.116273400000004],[-71.66807379999999,19.116044100000003],[-71.6672716,19.114386900000003],[-71.66511129999999,19.114158200000006],[-71.6631131,19.112948700000004],[-71.6581459,19.114907200000005],[-71.6571865,19.1163429],[-71.6557234,19.117327200000002],[-71.6542978,19.1155052],[-71.65373679999998,19.1164878],[-71.65374169999998,19.1185998],[-71.6516177,19.120808400000005],[-71.65117829999998,19.122822199999998],[-71.6498472,19.1247926],[-71.6493832,19.1256686],[-71.6491825,19.126675700000003],[-71.64837429999999,19.128610499999997],[-71.6477975,19.128961000000004],[-71.64813869999999,19.130871600000006],[-71.64753560000001,19.1315826],[-71.646987,19.132881300000005],[-71.64646340000002,19.1334223],[-71.6460591,19.135571900000002],[-71.64725740000002,19.135954900000005],[-71.64864460000001,19.137265700000007],[-71.64877739999999,19.137390400000005],[-71.6489442,19.1375379],[-71.65030859999999,19.1376892],[-71.6515852,19.138894800000003],[-71.65279269999998,19.1388266],[-71.65430909999999,19.140857800000003],[-71.6560992,19.142036599999997],[-71.65650769999999,19.1434093],[-71.65597099999998,19.1437088],[-71.65310749999999,19.142523599999997],[-71.6529193,19.1426609],[-71.65230709999997,19.143122799999997],[-71.6499076,19.142970700000003],[-71.6490283,19.143721799999998],[-71.64871889999999,19.144934600000003],[-71.6481845,19.1446163],[-71.64755550000001,19.144227400000002],[-71.64637809999998,19.1451537],[-71.64558,19.1447059],[-71.64490070000001,19.145424499999997],[-71.6443013,19.1450074],[-71.64333649999999,19.1457569],[-71.64277049999998,19.1451059],[-71.64117460000001,19.146060400000003],[-71.64042760000001,19.146841000000002],[-71.64062060000002,19.1480991],[-71.6417415,19.1485527],[-71.64293409999999,19.1496846],[-71.6440661,19.1496894],[-71.6441412,19.1510425],[-71.6450992,19.151574400000005],[-71.64574909999999,19.1527777],[-71.64677879999998,19.152579799999998],[-71.64702550000001,19.153532],[-71.64624640000001,19.1535996],[-71.64606460000002,19.1536137],[-71.6450203,19.154064000000005],[-71.64407460000001,19.153866100000005],[-71.64349179999999,19.154137400000003],[-71.6441458,19.1550408],[-71.6454346,19.1556509],[-71.64579729999998,19.156934900000003],[-71.645825,19.1570028],[-71.6437445,19.156098400000005],[-71.64365090000001,19.156152900000002],[-71.64237909999999,19.1569308],[-71.6427435,19.157433700000002],[-71.64276269999999,19.157459600000003],[-71.6432758,19.1581386],[-71.6432923,19.158659],[-71.6433287,19.159446499999998],[-71.6433336,19.1595538],[-71.64334179999999,19.159565900000004],[-71.64338529999999,19.1596562],[-71.6439107,19.160551],[-71.6438289,19.1613076],[-71.645504,19.1614523],[-71.6455924,19.1614572],[-71.6446343,19.1628115],[-71.6447337,19.1629862],[-71.6447852,19.1630694],[-71.6451033,19.163569199999998],[-71.64663209999999,19.1631188],[-71.64766950000002,19.163950100000005],[-71.644907,19.1657588],[-71.64625960000002,19.1679135],[-71.6463432,19.168607799999997],[-71.64522380000001,19.168117499999997],[-71.64438609999999,19.1682104],[-71.6429846,19.1665963],[-71.6417469,19.1667451],[-71.64129980000001,19.168181],[-71.6404941,19.1681031],[-71.63983649999999,19.1677261],[-71.63978089999999,19.1676936],[-71.63737769999999,19.1662861],[-71.6361347,19.166696499999997],[-71.63649199999999,19.168742699999996],[-71.63583609999998,19.168952],[-71.63571759999999,19.1689903],[-71.63425190000001,19.1682052],[-71.633726,19.1688455],[-71.6344097,19.1694197],[-71.63452790000001,19.169513499999997],[-71.63599179999999,19.1706755],[-71.63608199999999,19.1707471],[-71.6362213,19.1708497],[-71.63901360000001,19.1731933],[-71.6390864,19.174286700000003],[-71.6400057,19.174854100000008],[-71.64297279999998,19.1746738],[-71.64348849999999,19.1754775],[-71.64509179999999,19.1760393],[-71.6465793,19.176068700000005],[-71.6467669,19.176072100000003],[-71.64724070000001,19.1760835],[-71.64729350000002,19.176603],[-71.6460706,19.177215200000003],[-71.6454896,19.177508700000004],[-71.64384779999999,19.1774335],[-71.64377169999999,19.1776168],[-71.64360690000001,19.1780699],[-71.64444960000002,19.1800709],[-71.642168,19.1792349],[-71.6416822,19.178891600000004],[-71.6411288,19.1784848],[-71.6380994,19.1784056],[-71.637958,19.1783996],[-71.63708629999999,19.179232],[-71.63706450000001,19.1803056],[-71.6365092,19.180622499999995],[-71.63635219999999,19.182169799999997],[-71.6353999,19.183226299999998],[-71.6349955,19.182090799999997],[-71.6339956,19.181747499999997],[-71.63223009999999,19.182617599999997],[-71.63162750000001,19.183292499999997],[-71.63054249999999,19.1824603],[-71.6300686,19.1814767],[-71.62858679999998,19.1814767],[-71.62763109999999,19.181765900000002],[-71.6278569,19.1823387],[-71.62849779999998,19.1835147],[-71.6275345,19.184643199999996],[-71.62689429999999,19.1862289],[-71.62793699999999,19.1867986],[-71.62988329999999,19.1868434],[-71.62972599999999,19.188510199999996],[-71.63057149999999,19.189437299999998],[-71.6323092,19.1889999],[-71.633434,19.188343599999996],[-71.6340908,19.188743799999994],[-71.6352584,19.189712999999998],[-71.6358994,19.1899593],[-71.6370798,19.1893673],[-71.63722090000002,19.1899024],[-71.6371677,19.1911198],[-71.6375001,19.192055500000002],[-71.63785709999999,19.192203799999998],[-71.63962020000001,19.1929067],[-71.6386556,19.1936291],[-71.63777809999998,19.1938025],[-71.63738889999999,19.194255600000005],[-71.6374182,19.195149699999998],[-71.63827079999999,19.1952646],[-71.63921560000001,19.1969245],[-71.6390854,19.196981200000003],[-71.63853499999999,19.197228000000003],[-71.6384945,19.1982831],[-71.637859,19.198695700000002],[-71.63778609999999,19.198881300000004],[-71.63721430000001,19.200506999999998],[-71.63834259999999,19.2010782],[-71.6378658,19.2020983],[-71.63556209999999,19.2018665],[-71.6349522,19.2028932],[-71.6351222,19.203410799999997],[-71.6347616,19.2037881],[-71.6336365,19.2049899],[-71.63298759999999,19.205256199999997],[-71.63141390000001,19.2059058],[-71.630554,19.205213099999998],[-71.62948859999999,19.205513399999997],[-71.62903569999999,19.205641099999998],[-71.6276397,19.2060349],[-71.6277945,19.205433099999997],[-71.62637699999998,19.2041344],[-71.6248282,19.2028535],[-71.62383619999999,19.2038799],[-71.6240687,19.2050575],[-71.6241422,19.2061058],[-71.6221297,19.206032599999997],[-71.62277849999997,19.2077593],[-71.62380449999999,19.2077602],[-71.62549829999998,19.208549499999993],[-71.62581609999998,19.207878500000003],[-71.62638189999998,19.2076182],[-71.62683479999998,19.209169799999998],[-71.6277506,19.2089791],[-71.627949,19.208107299999998],[-71.6290034,19.208009199999996],[-71.6302714,19.207888300000004],[-71.6329586,19.207026199999998],[-71.6336831,19.2078338],[-71.6303306,19.209534899999998],[-71.62919049999999,19.2101158],[-71.62858119999999,19.2111063],[-71.62923049999999,19.211876400000005],[-71.6299834,19.212233199999996],[-71.6300265,19.2129109],[-71.6312991,19.2147935],[-71.6338274,19.216609],[-71.63395990000001,19.217121600000002],[-71.63400209999999,19.217275200000003],[-71.6340966,19.217619799999998],[-71.6349593,19.220736299999995],[-71.63622190000001,19.222654799999997],[-71.6367459,19.2239822],[-71.6360576,19.224655400000003],[-71.6358202,19.225120299999997],[-71.6369457,19.2253667],[-71.6382228,19.224243899999998],[-71.6386633,19.224540799999996],[-71.63847759999999,19.225259499999996],[-71.63923079999999,19.225598199999997],[-71.63973769999998,19.2250591],[-71.64014809999999,19.224627299999998],[-71.640192,19.224587],[-71.6407034,19.2246685],[-71.6405078,19.2254141],[-71.6409078,19.2258276],[-71.6407869,19.2261683],[-71.6393016,19.226321499999997],[-71.63837869999998,19.2277847],[-71.6394109,19.229047899999998],[-71.63974139999999,19.2294523],[-71.64110550000001,19.2291886],[-71.6434662,19.229352],[-71.64423990000002,19.2294047],[-71.64454980000001,19.229423299999997],[-71.64579789999999,19.228326999999997],[-71.6465989,19.228179199999996],[-71.6491943,19.2295084],[-71.6512805,19.2292487],[-71.65280139999999,19.230152],[-71.65452060000001,19.229714199999997],[-71.65714709999999,19.2299788],[-71.65733309999999,19.229242099999997],[-71.65777749999998,19.2288802],[-71.65833849999997,19.229332699999997],[-71.65974259999999,19.2293046],[-71.6599354,19.2292987],[-71.66254479999999,19.229941999999998],[-71.6630997,19.2297536],[-71.66378229999998,19.229829199999998],[-71.6650693,19.2292286],[-71.6651444,19.2291952],[-71.66533139999999,19.229286199999997],[-71.66604819999999,19.229608799999998],[-71.6660336,19.230330499999997],[-71.6668564,19.230632199999995],[-71.66726930000002,19.2307772],[-71.6669466,19.2322997],[-71.6667064,19.2333748],[-71.6665979,19.233914900000002],[-71.66726950000002,19.2340625],[-71.6681029,19.2337257],[-71.6686229,19.2343309],[-71.66895849999999,19.234235700000003],[-71.6695499,19.234068000000004],[-71.6699147,19.2329374],[-71.67054749999998,19.2331294],[-71.67070819999998,19.2339125],[-71.67091239999999,19.234823900000002],[-71.67154699999999,19.235395],[-71.67219979999999,19.2353523],[-71.67375449999999,19.235245499999998],[-71.67483809999997,19.2356986],[-71.67553189999998,19.235222699999998],[-71.67556069999999,19.235206199999997],[-71.67564909999999,19.2352719],[-71.67635769999998,19.235735199999997],[-71.676921,19.2351317],[-71.67716809999999,19.233240799999997],[-71.6778945,19.232559],[-71.6791245,19.232346599999996],[-71.68018289999999,19.2345231],[-71.68100360000001,19.235295999999998],[-71.68080289999999,19.236449699999998],[-71.6808231,19.236709299999998],[-71.6819995,19.2368992],[-71.6826856,19.237185900000004],[-71.6830206,19.237078200000003],[-71.68481829999999,19.236502499999997],[-71.68545069999999,19.2368139],[-71.684933,19.2374161],[-71.68478109999998,19.238352],[-71.68565249999999,19.2389636],[-71.6884147,19.2391129],[-71.6888602,19.2386967],[-71.69005960000001,19.238592099999998],[-71.69094,19.239230799999998],[-71.6921416,19.240913199999998],[-71.6925396,19.2419132],[-71.6935001,19.2418765],[-71.6956173,19.2405519],[-71.696992,19.240712099999996],[-71.69747819999999,19.2415783],[-71.6974357,19.242750899999997],[-71.6977929,19.2434253],[-71.6982353,19.2441101],[-71.69963609999999,19.2448666],[-71.70031350000001,19.245203699999998],[-71.7016073,19.246331799999997],[-71.7024336,19.247056100000002],[-71.70275779999999,19.2474772],[-71.70455890000001,19.2476991],[-71.70604370000001,19.250912],[-71.7080839,19.251066100000003],[-71.70894960000001,19.252922899999998],[-71.70756170000001,19.2553259],[-71.7079915,19.256642399999997],[-71.7073368,19.257542199999996],[-71.7086738,19.2595971],[-71.70993460000001,19.260233499999995],[-71.71066710000001,19.260670899999997],[-71.71154890000001,19.2607771],[-71.71306160000002,19.2630788],[-71.71358120000001,19.263710899999996],[-71.71404900000002,19.263601999999995],[-71.7159875,19.2645755],[-71.7157734,19.266259499999997],[-71.71672490000002,19.2671521],[-71.7180177,19.2671483],[-71.71986270000001,19.2661344],[-71.7209816,19.266741199999995],[-71.7225814,19.2675371],[-71.72377749999998,19.267612699999997],[-71.7240622,19.268592599999995],[-71.72201960000001,19.2699821],[-71.72191020000001,19.270702099999998],[-71.7226688,19.2717447],[-71.72353869999999,19.275794899999998],[-71.72410340000002,19.2765542],[-71.72554199999999,19.2782949],[-71.7268638,19.2773077],[-71.72766450000002,19.277195700000004],[-71.72742050000001,19.2751244],[-71.72842920000001,19.2741045],[-71.7283206,19.2733534],[-71.72951420000001,19.2725986],[-71.7292331,19.2719166],[-71.7294332,19.2709364],[-71.73011420000002,19.2701453],[-71.73091440000002,19.269094499999998],[-71.7310341,19.267851000000004],[-71.7322024,19.2664549],[-71.7310753,19.262418199999995],[-71.7316788,19.2621853],[-71.73384340000001,19.265175499999998],[-71.73532920000001,19.265021599999997],[-71.73588819999999,19.265591099999998],[-71.73656350000002,19.2674806],[-71.73840679999999,19.268948599999998],[-71.73900490000001,19.272343999999997],[-71.7396981,19.273818600000002],[-71.7395288,19.274691100000002],[-71.7386438,19.275216799999995],[-71.7382462,19.278016799999996],[-71.7388886,19.278696199999995],[-71.73946190000001,19.278543999999997],[-71.74009360000002,19.276885400000005],[-71.7430527,19.276730699999998],[-71.74522090000002,19.275713299999996],[-71.7463445,19.274171900000002],[-71.74718310000002,19.274060400000003],[-71.7481812,19.2745376],[-71.74861170000001,19.275633599999995],[-71.74862420000002,19.277960400000005],[-71.74999660000002,19.2788678],[-71.75108900000001,19.279249899999996],[-71.7530406,19.279582499999997],[-71.7548338,19.2802281],[-71.75518269999999,19.281335499999997],[-71.7547874,19.282583099999997],[-71.7542975,19.282845199999997],[-71.75377869999998,19.283124799999996],[-71.75337789999999,19.2841647],[-71.75339199999999,19.284896],[-71.7536417,19.286218299999998],[-71.75362390000002,19.287120599999998],[-71.75324040000001,19.288241999999993],[-71.75420890000001,19.2892612],[-71.7551113,19.289773699999998],[-71.75584509999999,19.2901658],[-71.75616670000001,19.2907311],[-71.7564406,19.2913046],[-71.75795260000001,19.2912773],[-71.7586078,19.290828700000002],[-71.759739,19.2908307],[-71.76046910000001,19.2909249],[-71.76106670000001,19.291468000000002],[-71.7610861,19.2928945],[-71.7607438,19.294350700000003],[-71.7602875,19.295795799999997],[-71.75772990000002,19.2972667],[-71.7561451,19.2976086],[-71.7560706,19.298979199999998],[-71.75632470000001,19.2995885],[-71.7565519,19.3001161],[-71.75720820000001,19.301066400000003],[-71.75812560000001,19.300821000000003],[-71.75917,19.301372100000002],[-71.7598006,19.3021776],[-71.75903869999999,19.302723699999998],[-71.7590943,19.3032843],[-71.7595071,19.3035624],[-71.76154910000001,19.3036619],[-71.76206400000001,19.304546499999997],[-71.76256320000002,19.304781100000003],[-71.76287889999999,19.3041999],[-71.7629472,19.303145100000002],[-71.76319840000001,19.302941999999998],[-71.76425030000001,19.303592499999997],[-71.7644771,19.3041471],[-71.76384300000001,19.304966300000004],[-71.76293340000001,19.306258900000003],[-71.7625523,19.3067846],[-71.7626915,19.307437],[-71.7644753,19.3081005],[-71.76507279999998,19.309627499999998],[-71.7654161,19.310057800000003],[-71.76538529999999,19.310653000000002],[-71.7654077,19.311447700000002],[-71.7659455,19.311655800000004],[-71.7664745,19.311827700000006],[-71.76648229999999,19.3133622],[-71.7664357,19.314282100000003],[-71.7667417,19.314675600000005],[-71.76742140000002,19.315888100000006],[-71.76732310000001,19.3165363],[-71.7680322,19.316738400000002],[-71.7691369,19.317128100000005],[-71.76968910000001,19.317571100000006],[-71.76976400000001,19.318114],[-71.76906910000001,19.319121700000004],[-71.76866310000001,19.319944900000003],[-71.76948390000001,19.3207538],[-71.7706579,19.320521799999998],[-71.77149960000001,19.320265900000003],[-71.77285129999999,19.3201815],[-71.77374079999998,19.3204049],[-71.77394579999999,19.3215819],[-71.774238,19.322679299999997],[-71.77539249999998,19.3229615],[-71.77634829999998,19.323186],[-71.77670979999999,19.323661700000002],[-71.7765354,19.3257618],[-71.77670869999999,19.326622299999997],[-71.77715740000001,19.327018400000004],[-71.77805209999998,19.3279368],[-71.7791241,19.32903],[-71.7796477,19.329485700000003],[-71.78016960000002,19.3295358],[-71.78155170000001,19.3291958],[-71.7827107,19.329501999999998],[-71.7843358,19.330127100000002],[-71.7848151,19.330743],[-71.7853666,19.330867000000005],[-71.78577049999998,19.331171900000005],[-71.78593599999999,19.3316482],[-71.78336,19.333157500000002],[-71.77879139999999,19.335391],[-71.7746522,19.337408300000003],[-71.77222460000002,19.3385206],[-71.7683215,19.338749299999996],[-71.7631704,19.339091000000003],[-71.7562382,19.339590400000002],[-71.7526332,19.3396526],[-71.751787,19.340612299999997],[-71.7510882,19.343722799999995],[-71.74824040000001,19.353546299999998],[-71.74403980000001,19.356287400000003],[-71.73752710000001,19.358129299999998],[-71.7349221,19.3595267],[-71.7349748,19.3607011],[-71.73160000000001,19.360640399999998],[-71.7310128,19.3614783],[-71.7303573,19.3628745],[-71.7291786,19.363322699999998],[-71.724435,19.3665588],[-71.7226631,19.3652813],[-71.72159920000001,19.365226099999997],[-71.71976480000001,19.364218100000002],[-71.71874809999998,19.3627557],[-71.71816650000001,19.3628264],[-71.7185183,19.3647282],[-71.7169318,19.368445199999996],[-71.71407160000001,19.371642899999998],[-71.7054864,19.365846499999996],[-71.7033014,19.3647869],[-71.7028044,19.363487199999998],[-71.70300940000001,19.3622816],[-71.702354,19.360825600000002],[-71.7012768,19.3595424],[-71.70004940000001,19.359574300000002],[-71.6973201,19.3600483],[-71.6967792,19.359515000000002],[-71.6961952,19.359712],[-71.69451300000001,19.359663400000002],[-71.6937104,19.3603257],[-71.692095,19.3630943],[-71.69361950000001,19.3643585],[-71.69393629999999,19.367505100000002],[-71.6939706,19.368633999999997],[-71.69360320000001,19.368934199999998],[-71.69253839999999,19.369393199999998],[-71.6916481,19.370622499999996],[-71.6910065,19.371784100000003],[-71.69130229999999,19.372674],[-71.693379,19.374859800000003],[-71.69395829999999,19.3796089],[-71.69464020000001,19.3811646],[-71.6943524,19.381755100000003],[-71.6945792,19.382300799999996],[-71.6952518,19.3852553],[-71.6952526,19.3861579],[-71.6956702,19.3866709],[-71.695809,19.388279999999998],[-71.6964886,19.388535999999995],[-71.696425,19.3888598],[-71.6973826,19.389951300000003],[-71.69703709999999,19.3910461],[-71.69772490000001,19.391365500000003],[-71.69840719999999,19.3929123],[-71.69752500000001,19.394204900000002],[-71.69813549999999,19.3960031],[-71.69677209999998,19.397106400000002],[-71.69725030000001,19.3983877],[-71.6967016,19.3987117],[-71.6964309,19.399871100000006],[-71.69488729999999,19.401413499999997],[-71.6943241,19.4019809],[-71.69395390000001,19.402885700000002],[-71.692709,19.403296299999997],[-71.6924836,19.404095400000003],[-71.69170129999999,19.4042075],[-71.69043669999999,19.4070005],[-71.6899617,19.4074431],[-71.69000679999999,19.408499799999994],[-71.68978879999997,19.4091241],[-71.6897547,19.410146899999997],[-71.68957849999998,19.411335100000002],[-71.68881209999998,19.4120703],[-71.6888439,19.414255000000004],[-71.6891243,19.4145038],[-71.68988839999999,19.4143463],[-71.6904099,19.414428],[-71.6906191,19.414901100000005],[-71.6892272,19.420218799999997],[-71.68940669999999,19.422153499999997],[-71.6890606,19.422336799999993],[-71.6866749,19.422699399999996],[-71.68532869999999,19.4271604],[-71.68446440000001,19.428029099999996],[-71.6837037,19.430343799999996],[-71.68265229999999,19.431525],[-71.68376079999999,19.432682399999997],[-71.68365879999999,19.4330236],[-71.6814797,19.433046799999996],[-71.68024829999999,19.43325],[-71.67970489999999,19.4342418],[-71.67975839999998,19.435822299999998],[-71.68080789999999,19.4366087],[-71.6809079,19.438243999999997],[-71.68071099999999,19.440433699999996],[-71.67997579999998,19.441503199999996],[-71.68042940000001,19.442116299999995],[-71.68026920000001,19.442979799999996],[-71.67846879999998,19.444020799999997],[-71.6784594,19.4449502],[-71.67915269999999,19.445477399999998],[-71.6797666,19.445235999999994],[-71.67972679999998,19.446255100000002],[-71.6802035,19.447139299999996],[-71.6799036,19.4492548],[-71.67990579999999,19.451484100000002],[-71.68012060000001,19.4516776],[-71.6814176,19.4510695],[-71.68157699999999,19.452119399999997],[-71.68460390000001,19.454864400000005],[-71.6855193,19.455702499999994],[-71.6870265,19.459259],[-71.68693019999999,19.459780799999997],[-71.6862187,19.460146699999996],[-71.68538909999998,19.460230899999996],[-71.6854246,19.461296499999996],[-71.6863272,19.4618275],[-71.6871224,19.462500899999995],[-71.68768460000001,19.462926399999997],[-71.68734909999999,19.4649239],[-71.68693099999999,19.466766499999995],[-71.6869895,19.467633999999997],[-71.68777159999999,19.467539999999996],[-71.6894859,19.4670027],[-71.6903505,19.467532999999996],[-71.690631,19.468242099999994],[-71.6898642,19.4699249],[-71.688521,19.471867900000003],[-71.68884189999999,19.472469399999998],[-71.68947259999999,19.4728059],[-71.68990279999998,19.473644099999998],[-71.6911158,19.4743613],[-71.69274009999998,19.4745083],[-71.69328370000001,19.474915300000003],[-71.69352560000002,19.475659799999995],[-71.69421900000002,19.4771256],[-71.69380749999999,19.478643299999995],[-71.692922,19.480540599999994],[-71.6920105,19.4818417],[-71.69287329999999,19.483409899999995],[-71.69253679999998,19.484513799999995],[-71.6926774,19.485084999999998],[-71.6933437,19.485548499999993],[-71.6932688,19.4873612],[-71.6938904,19.488148799999994],[-71.69414920000001,19.489462199999995],[-71.6939198,19.4899815],[-71.69172960000002,19.4914487],[-71.69077879999998,19.492342899999993],[-71.6908209,19.4930747],[-71.69193849999999,19.4938082],[-71.69155260000001,19.495001499999997],[-71.69046809999999,19.499187499999998],[-71.68810599999999,19.5030529],[-71.68831259999999,19.503399199999997],[-71.68849049999999,19.5038276],[-71.68873589999998,19.5046888],[-71.68892869999999,19.505311999999996],[-71.68945409999999,19.5062386],[-71.68953279999998,19.5067444],[-71.6892627,19.5077489],[-71.68866609999999,19.5088453],[-71.6878675,19.510268100000005],[-71.6878,19.511322],[-71.68807009999998,19.5125599],[-71.6886104,19.5134865],[-71.6890007,19.5139463],[-71.6893534,19.514073600000003],[-71.6897436,19.514052400000004],[-71.69019390000001,19.513727],[-71.6905841,19.5132885],[-71.6909969,19.512602299999998],[-71.69147709999999,19.5116262],[-71.6918073,19.511208900000003],[-71.69233259999999,19.5109825],[-71.6928279,19.5107137],[-71.6931731,19.5106005],[-71.6940962,19.510848100000004],[-71.6947041,19.5114423],[-71.6952069,19.511887900000005],[-71.6957547,19.512001100000003],[-71.69701540000001,19.5116899],[-71.6982612,19.5115272],[-71.6989215,19.511838400000006],[-71.69985209999999,19.513132799999998],[-71.7003474,19.514024100000004],[-71.70052000000001,19.514964900000006],[-71.70032490000001,19.516867600000005],[-71.69981460000001,19.518685400000003],[-71.69989709999999,19.5201566],[-71.70020480000001,19.520623399999998],[-71.7008502,19.520849799999997],[-71.70164570000001,19.5207649],[-71.7025612,19.520609299999997],[-71.7031015,19.5207649],[-71.7032741,19.5210407],[-71.70331920000001,19.5220876],[-71.7035368,19.5233253],[-71.7037619,19.5251219],[-71.7037319,19.5265647],[-71.7034843,19.527335700000002],[-71.7034767,19.5281985],[-71.70342420000001,19.528743099999996],[-71.7029514,19.5299738],[-71.7028839,19.5303769],[-71.7026287,19.530723499999997],[-71.7024862,19.531741999999998],[-71.7025462,19.5327746],[-71.7028089,19.5333191],[-71.70316160000002,19.533793],[-71.70382950000001,19.534281000000004],[-71.7044523,19.534450700000004],[-71.70490260000001,19.5343729],[-71.70556300000001,19.534083000000003],[-71.7059757,19.533722299999997],[-71.706381,19.5331635],[-71.7066511,19.5324846],[-71.7069063,19.531862200000003],[-71.7071389,19.531529799999998],[-71.70764170000001,19.531324700000003],[-71.70833209999998,19.531508600000002],[-71.70961540000002,19.5316359],[-71.7108161,19.531904600000004],[-71.7120093,19.5323856],[-71.71251960000002,19.5329938],[-71.7127447,19.5336303],[-71.71292480000001,19.534585100000005],[-71.71307490000001,19.5356884],[-71.71296240000001,19.5365795],[-71.7126772,19.5381355],[-71.71245960000002,19.5400167],[-71.71243709999999,19.541218999999998],[-71.71248709999999,19.5418925],[-71.71257209999999,19.542675799999998],[-71.71256720000001,19.543544699999998],[-71.71260970000002,19.544295400000003],[-71.7127477,19.5447086],[-71.7129409,19.545696399999997],[-71.71289340000001,19.5463589],[-71.712773,19.546955800000003],[-71.71233279999998,19.5475407],[-71.7121428,19.547976400000003],[-71.7120415,19.548334499999996],[-71.7120447,19.548492699999997],[-71.71213540000001,19.549216599999998],[-71.7123477,19.5496441],[-71.71255310000001,19.5500592],[-71.7128435,19.550630899999998],[-71.71331540000001,19.551847700000003],[-71.713834,19.5524537],[-71.7144771,19.5530108],[-71.71487809999999,19.5533109],[-71.7151823,19.5535385],[-71.71651480000001,19.5543265],[-71.71719640000002,19.5547802],[-71.7180915,19.555537199999996],[-71.7185479,19.5562115],[-71.71942270000001,19.557049],[-71.71995420000002,19.557461400000005],[-71.7207672,19.557915200000004],[-71.7214986,19.558019599999998],[-71.7222455,19.5579326],[-71.7226706,19.5577948],[-71.72307509999999,19.557833900000002],[-71.7232623,19.5584277],[-71.72317879999999,19.558796499999996],[-71.7230491,19.559055500000003],[-71.72285209999998,19.5592021],[-71.72219869999999,19.559163],[-71.7218305,19.5593829],[-71.7214812,19.5597139],[-71.7212808,19.560233199999995],[-71.7213067,19.5605606],[-71.7214519,19.5609417],[-71.72169560000002,19.5610688],[-71.7233797,19.5612121],[-71.72405300000001,19.5612958],[-71.7240745,19.5612985],[-71.72428690000001,19.561643999999998],[-71.7245378,19.562244199999995],[-71.7244413,19.563026299999997],[-71.7247115,19.5639903],[-71.7249431,19.565008799999998],[-71.7248466,19.5654817],[-71.7238622,19.5659364],[-71.743137,19.5846797],[-71.743441,19.588493999999997],[-71.74368940000002,19.592713499999995],[-71.74529580000001,19.614630100000003],[-71.74574799999999,19.633781900000002],[-71.73722080000002,19.6417367],[-71.7330457,19.6456052],[-71.7324345,19.6461715],[-71.73278279999998,19.6482538],[-71.73499320000002,19.6615297],[-71.735187,19.661571400000003],[-71.7353836,19.6617337],[-71.7355948,19.661974600000004],[-71.73581300000001,19.6622155],[-71.7360187,19.662402099999998],[-71.7364598,19.662578999999997],[-71.73676999999999,19.662661],[-71.7369548,19.662772399999998],[-71.73705990000002,19.6628994],[-71.73713330000001,19.6630568],[-71.7371748,19.663229499999996],[-71.7373283,19.6634088],[-71.73750500000001,19.6634977],[-71.73774490000001,19.6635182],[-71.73789660000001,19.6635019],[-71.7381756,19.6634319],[-71.7383191,19.6634006],[-71.73841540000001,19.6634449],[-71.7385048,19.663602199999996],[-71.73861070000001,19.6638195],[-71.7386768,19.6640522],[-71.7386811,19.6644249],[-71.7387007,19.6645858],[-71.738765,19.664775300000002],[-71.7388576,19.664914800000002],[-71.73908060000001,19.6651211],[-71.7392884,19.665246099999997],[-71.7394668,19.665312499999995],[-71.7396829,19.6653181],[-71.7399924,19.665224199999997],[-71.7404563,19.665046799999995],[-71.74112420000003,19.664904200000002],[-71.74180190000001,19.664779799999998],[-71.74229560000002,19.6646843],[-71.74265380000001,19.664619899999998],[-71.7428282,19.664588600000002],[-71.74320590000002,19.6645397],[-71.74338060000001,19.6645474],[-71.74350740000001,19.6646194],[-71.74364510000001,19.664828300000003],[-71.74385960000002,19.664945200000002],[-71.74400540000002,19.664980600000003],[-71.74409360000003,19.6650803],[-71.74414450000002,19.6653356],[-71.74422570000003,19.665718499999997],[-71.74433420000001,19.6659094],[-71.74450040000002,19.666045],[-71.74499650000001,19.666264100000003],[-71.7454062,19.666507199999998],[-71.7457086,19.666696499999997],[-71.74591440000002,19.666914000000002],[-71.74610080000001,19.6671407],[-71.74624730000001,19.6672491],[-71.74641240000001,19.667275100000005],[-71.74661640000002,19.6673008],[-71.74676320000002,19.667445700000002],[-71.74681340000002,19.6676279],[-71.74678560000001,19.6677652],[-71.74661260000002,19.667931000000003],[-71.7463345,19.6682621],[-71.74615290000001,19.668546799999994],[-71.74613470000001,19.668674799999998],[-71.74620410000001,19.6688386],[-71.74639950000001,19.668983100000002],[-71.74702790000002,19.6692043],[-71.7472711,19.6692845],[-71.74743670000001,19.669365300000003],[-71.74750570000002,19.6694743],[-71.74745860000002,19.669620799999997],[-71.7473921,19.6697766],[-71.74738370000001,19.669904600000002],[-71.7474823,19.670077300000003],[-71.74762860000003,19.670167400000004],[-71.74788090000001,19.670174400000004],[-71.7480951,19.670263900000002],[-71.7483392,19.670435400000002],[-71.7484766,19.6706078],[-71.7485558,19.6707806],[-71.7487316,19.670907000000003],[-71.74904340000002,19.671059700000004],[-71.74936540000002,19.671257900000004],[-71.74968560000002,19.6715352],[-71.75007649999999,19.671851600000007],[-71.75051660000001,19.6722315],[-71.7509377,19.6726572],[-71.75102570000001,19.673156600000002],[-71.75131470000001,19.6736699],[-71.75179829999999,19.674178600000005],[-71.75213,19.674684700000004],[-71.75273739999999,19.6750369],[-71.7530102,19.675420199999998],[-71.75346950000001,19.6757649],[-71.7539155,19.675968400000006],[-71.75415070000001,19.6760568],[-71.7544567,19.676062400000003],[-71.75508869999999,19.676025000000003],[-71.755505,19.6759695],[-71.7557109,19.675963700000004],[-71.7559538,19.675948400000003],[-71.7560848,19.675924100000003],[-71.75642500000001,19.6762891],[-71.7565759,19.6766693],[-71.75666030000001,19.6772425],[-71.75674179999999,19.677663700000004],[-71.7567657,19.6780042],[-71.75674179999999,19.6783219],[-71.7566714,19.678535],[-71.7564954,19.6786866],[-71.7560629,19.6787718],[-71.7558607,19.678918900000003],[-71.75493,19.6795825],[-71.75464970000002,19.679804100000005],[-71.75437609999999,19.6800618],[-71.75437809999998,19.6804529],[-71.7543859,19.6808282],[-71.7543904,19.6815918],[-71.75468490000002,19.681835600000003],[-71.7553174,19.681735],[-71.7558839,19.681879900000002],[-71.75612950000001,19.6820946],[-71.7563563,19.682562299999997],[-71.7562978,19.6828287],[-71.75602900000001,19.683020799999998],[-71.75574579999999,19.6829924],[-71.75507149999999,19.683406199999997],[-71.75487249999999,19.683951600000004],[-71.7551743,19.6842301],[-71.75549819999999,19.6843742],[-71.756011,19.6845182],[-71.756182,19.6846876],[-71.756155,19.6849926],[-71.7554172,19.685009499999996],[-71.75485940000002,19.684975600000005],[-71.7543915,19.6850519],[-71.75408560000001,19.6854077],[-71.75418460000002,19.6859837],[-71.75436450000001,19.6862718],[-71.7546884,19.6863311],[-71.75514729999999,19.686212499999996],[-71.75552520000001,19.685949799999996],[-71.75616400000001,19.685822799999997],[-71.75651490000001,19.685822799999997],[-71.75706370000002,19.6858482],[-71.75753160000001,19.686042999999998],[-71.75765750000001,19.6862294],[-71.75760350000002,19.686441199999997],[-71.7573876,19.6866784],[-71.7568298,19.6867885],[-71.75655090000001,19.6867885],[-71.75626290000001,19.686932499999998],[-71.75622890000001,19.6873267],[-71.7567124,19.687758000000002],[-71.75759040000001,19.687602299999998],[-71.75797209999999,19.687674100000002],[-71.75865920000001,19.6878898],[-71.75919360000002,19.687805900000004],[-71.759499,19.6878898],[-71.7597026,19.6881414],[-71.75958809999999,19.6885487],[-71.75882460000001,19.6891118],[-71.7574759,19.689974300000003],[-71.756827,19.6901301],[-71.7560623,19.6897313],[-71.7557456,19.6898828],[-71.7557099,19.6904523],[-71.7557454,19.6909327],[-71.75582320000001,19.6913227],[-71.75559109999999,19.6916845],[-71.75551440000001,19.6917102],[-71.7554437,19.6917526],[-71.75530849999998,19.691830200000002],[-71.7551907,19.691860400000007],[-71.7550407,19.692089199999998],[-71.75503809999998,19.6922639],[-71.7551006,19.6926311],[-71.75527009999999,19.692797],[-71.75548789999999,19.692851000000005],[-71.7556849,19.6928028],[-71.7558119,19.6926623],[-71.7559187,19.6924662],[-71.7560359,19.6923257],[-71.7562125,19.6922033],[-71.75650040000001,19.692042999999998],[-71.75673699999999,19.691994600000005],[-71.7569348,19.6920301],[-71.75720260000001,19.6921487],[-71.7574708,19.692313799999997],[-71.7577915,19.692508],[-71.75808029999999,19.692717599999998],[-71.75834499999999,19.6927984],[-71.75867009999999,19.6928479],[-71.7589962,19.6929825],[-71.7592113,19.693135],[-71.75928970000001,19.693349499999997],[-71.75933149999999,19.6935304],[-71.75926330000001,19.693731],[-71.758884,19.694207400000003],[-71.7588562,19.694444],[-71.75887409999999,19.6946068],[-71.75911020000001,19.694754000000003],[-71.75933819999999,19.694901500000004],[-71.7598334,19.695022299999998],[-71.76026930000002,19.6947472],[-71.7607953,19.6937967],[-71.76125720000002,19.6932431],[-71.76163540000002,19.6931155],[-71.76187809999999,19.6933919],[-71.7619628,19.693843700000002],[-71.76162410000002,19.6952467],[-71.760828,19.6958932],[-71.76037029999999,19.6963012],[-71.76007249999999,19.696567100000003],[-71.76001600000001,19.696865100000007],[-71.76004760000001,19.697069400000004],[-71.7605025,19.697750900000003],[-71.7603201,19.698451400000003],[-71.7599502,19.698746199999995],[-71.75963300000001,19.698950500000002],[-71.75921660000002,19.6989962],[-71.75850249999999,19.6991742],[-71.7582541,19.699992700000003],[-71.7584243,19.701644899999998],[-71.7586772,19.7019452],[-71.7736624,19.731261500000002],[-71.7958731,19.7319628],[-71.8038176,19.7331793],[-71.91384320000002,19.7964561],[-72.0313557,19.924587799999998],[-72.0574706,19.953057700000002],[-72.05012990000002,19.969789799999994],[-72.04110410000001,19.985095599999998],[-72.02941340000001,20.0002137],[-71.18004609999998,20.9793764],[-71.17577729999996,20.980593299999995],[-71.14159070000001,20.9945915],[-71.1105141,21.013958200000005],[-71.0834942,21.0381037],[-70.9790513,21.1489191],[-70.9268316,21.1690633],[-70.87581599999999,21.182968600000002],[-70.82950960000001,21.1917502],[-70.79026680000001,21.1961409],[-70.7488569,21.1977415],[-70.7127484,21.198835000000003],[-70.706417,21.209040199999997],[-70.68028179999999,21.240776999999998],[-70.64898809999998,21.266286799999996],[-70.6134573,21.2854647],[-70.57265679999999,21.298402099999997],[-70.5311188,21.303433],[-70.49135820000001,21.3011326],[-70.4504474,21.291227],[-69.8147227,21.072616399999998],[-69.76482090000002,21.050524499999998],[-69.70599340000001,21.0132282],[-69.64383609999999,20.979031799999998],[-69.55614990000001,20.934461000000002],[-69.48622290000002,20.9012834],[-69.4285053,20.863949899999998],[-69.38743709999999,20.834906300000004],[-69.32682960000001,20.786589199999995],[-68.59711620000002,20.051407700000002],[-68.58142160000001,20.0336124],[-68.5681309,20.014415200000002],[-68.55751670000001,19.9944356],[-68.5501797,19.9760007],[-68.53100360000002,19.916859100000003],[-68.5255564,19.902665799999998],[-68.12009099999999,18.6993321],[-68.11870479999999,18.6950528],[-68.1174211,18.690730799999997],[-68.1163226,18.686728999999996],[-68.1152993,18.6826181],[-68.1143148,18.678256400000002],[-68.1134631,18.674014300000003],[-68.1127106,18.669810400000003],[-68.1120538,18.665548199999996],[-68.1115068,18.6614186],[-68.1110362,18.657133400000003],[-68.1106731,18.652853600000004],[-68.1104012,18.6485806],[-68.11021620000001,18.6441726],[-68.1101463,18.639852700000006]],[[-71.87940779999998,18.488604499999994],[-71.87940429999999,18.488654799999996],[-71.8794999,18.488725299999995],[-71.87980069999999,18.488859599999998],[-71.87998829999998,18.488872999999998],[-71.8801865,18.488977],[-71.8804165,18.4890744],[-71.88044129999999,18.4891684],[-71.88049079999999,18.489201899999998],[-71.880551,18.489258999999997],[-71.8806112,18.489319399999996],[-71.8806819,18.489430199999994],[-71.88071029999999,18.489524199999995],[-71.8806501,18.489631599999996],[-71.8806141,18.489710099999996],[-71.8806819,18.489849699999997],[-71.88077749999998,18.4899739],[-71.88085179999999,18.490027599999998],[-71.88097269999999,18.4900957],[-71.8813544,18.489984],[-71.8815349,18.489913499999997],[-71.8816304,18.489728899999996],[-71.88162340000002,18.489510699999997],[-71.8816084,18.489332299999994],[-71.8814853,18.489047499999995],[-71.88141460000001,18.488919999999997],[-71.8813155,18.488701799999994],[-71.8812305,18.488527299999994],[-71.8809395,18.488273499999995],[-71.88067809999998,18.488053999999998],[-71.8804554,18.487949899999997],[-71.880144,18.487748599999996],[-71.88004839999999,18.4876781],[-71.87985729999998,18.487604199999996],[-71.87971569999999,18.487788799999997],[-71.87962370000001,18.488047299999995],[-71.8795105,18.488272199999994],[-71.87940779999998,18.488604499999994]]]]}}]}